{
  "version": 0.6,
  "generator": "Overpass API 0.7.61.5 4133829e",
  "osm3s": {
    "timestamp_osm_base": "2023-12-24T19:56:40Z",
    "timestamp_areas_base": "2023-12-24T15:27:29Z",
    "copyright": "The data included in this document is from www.openstreetmap.org. The data is made available under ODbL."
  },
  "elements": [

{
  "type": "node",
  "id": 172348137,
  "lat": 42.0057090,
  "lon": 21.4174425,
  "tags": {
    "contact:phone": "+38923117669",
    "fee": "yes",
    "name": "Природонаучен Музеј",
    "name:en": "Macedonian Museum of Natural History",
    "name:pl": "Muzeum Przyrodnicze",
    "name:tr": "Ulusal Tarih Müzesi",
    "opening_hours": "Tu-Su 09:00-16:00",
    "tourism": "museum",
    "wikidata": "Q20567394",
    "wikimedia_commons": "Category:Macedonian Museum of Natural History",
    "wikipedia": "mk:Природонаучен музеј на Македонија"
  }
},
{
  "type": "node",
  "id": 332045703,
  "lat": 42.0111578,
  "lon": 20.8825858,
  "tags": {
    "amenity": "place_of_worship",
    "denomination": "orthodox",
    "name": "Св. Наум Охридски - Чудотворец",
    "religion": "christian"
  }
},
{
  "type": "node",
  "id": 367853384,
  "lat": 41.9936737,
  "lon": 21.4333190,
  "tags": {
    "artist": "Кристина Пауновска",
    "cost": "272.792 euro",
    "description": "Историско значење Питу Гули (1865 - 12 август 1903) — македонски револуционер со влашко потекло, учесник во македонското револуционерно движење, член и војвода на Македонската револуционерна организација.\nСовременици сведочат дека Питу Гули имал завршено",
    "historic": "monument",
    "investitor": "Општина Центар",
    "learnica": "Уметничка леарница Јеремиќ",
    "name": "Питу Гули",
    "start_date": "2012"
  }
},
{
  "type": "node",
  "id": 367860262,
  "lat": 42.0032812,
  "lon": 21.4233737,
  "tags": {
    "historic": "monument",
    "name": "Гоце Делчев",
    "name:en": "Statue of Goce Delčev"
  }
},
{
  "type": "node",
  "id": 373488475,
  "lat": 42.0192462,
  "lon": 20.9598834,
  "tags": {
    "amenity": "place_of_worship",
    "denomination": "orthodox",
    "name": "Св. Атанасиј",
    "name:en": "St Athanasius Church",
    "religion": "christian"
  }
},
{
  "type": "node",
  "id": 382635381,
  "lat": 41.4325212,
  "lon": 22.0228463,
  "tags": {
    "historic": "monument",
    "name": "Костурница",
    "name:en": "Kosturnica",
    "tourism": "attraction"
  }
},
{
  "type": "node",
  "id": 382646189,
  "lat": 41.4336787,
  "lon": 22.0195297,
  "tags": {
    "historic": "monument"
  }
},
{
  "type": "node",
  "id": 390757439,
  "lat": 41.1155576,
  "lon": 20.7914836,
  "tags": {
    "historic": "archaeological_site",
    "name": "Лихнид",
    "name:la": "Lychnidos",
    "wikipedia": "it:Lychnidos"
  }
},
{
  "type": "node",
  "id": 410115784,
  "lat": 41.3377228,
  "lon": 21.2578980,
  "tags": {
    "historic": "monument",
    "int_name": "Mečkin Kamen",
    "name": "Мечкин Камен",
    "name:en": "Mechkin Kamen",
    "tourism": "attraction"
  }
},
{
  "type": "node",
  "id": 410115785,
  "lat": 41.3880768,
  "lon": 21.2273776,
  "tags": {
    "historic": "monument",
    "int_name": "Sliva",
    "name": "Слива"
  }
},
{
  "type": "node",
  "id": 414202918,
  "lat": 41.2824000,
  "lon": 21.3604239,
  "tags": {
    "amenity": "place_of_worship",
    "religion": "christian"
  }
},
{
  "type": "node",
  "id": 414714609,
  "lat": 41.5113691,
  "lon": 21.6904592,
  "tags": {
    "ele": "368.7886963",
    "historic": "monument"
  }
},
{
  "type": "node",
  "id": 434806407,
  "lat": 41.0128756,
  "lon": 21.2463892,
  "tags": {
    "amenity": "place_of_worship",
    "religion": "christian"
  }
},
{
  "type": "node",
  "id": 444334991,
  "lat": 41.9188903,
  "lon": 22.4069917,
  "tags": {
    "historic": "monument",
    "int_name": "Spomenik na slobodata",
    "name": "Споменик на слободата",
    "name:en": "Monument of Freedom",
    "tourism": "attraction",
    "wikidata": "Q3402642",
    "wikipedia": "mk:Споменик на слободата (Кочани)"
  }
},
{
  "type": "node",
  "id": 446094520,
  "lat": 41.9221786,
  "lon": 22.4468081,
  "tags": {
    "amenity": "place_of_worship",
    "denomination": "orthodox",
    "int_name": "Sv. Atanasij Велики",
    "name": "Св. Атанасиј Велики",
    "name:en": "St. Athanasius",
    "religion": "christian"
  }
},
{
  "type": "node",
  "id": 470409981,
  "lat": 42.0690911,
  "lon": 21.3001786,
  "tags": {
    "amenity": "place_of_worship",
    "building": "monastery",
    "denomination": "orthodox",
    "name": "Манастир Св. Ѓорѓија",
    "population": "0",
    "religion": "christian",
    "tourism": "attraction",
    "wikidata": "Q24084121",
    "wikipedia": "mk:Црква „Св. Ѓорѓи“ - Кучково"
  }
},
{
  "type": "node",
  "id": 470410341,
  "lat": 42.0385762,
  "lon": 21.3307823,
  "tags": {
    "amenity": "place_of_worship",
    "denomination": "orthodox",
    "name": "Sv. Mala Bogorodica",
    "population": "0",
    "religion": "christian"
  }
},
{
  "type": "node",
  "id": 473402602,
  "lat": 41.2571977,
  "lon": 21.2075541,
  "tags": {
    "amenity": "place_of_worship",
    "denomination": "orthodox",
    "religion": "christian"
  }
},
{
  "type": "node",
  "id": 473902990,
  "lat": 42.2916094,
  "lon": 22.3507979,
  "tags": {
    "historic": "monument",
    "name": "WWII Battle - 17th Macedonian Brigade ws Bulgarian army",
    "name:mk": "2ра Светска војна - Битка помеѓу 17та Македонска Ударна Бригада и Бугарската војска"
  }
},
{
  "type": "node",
  "id": 478699817,
  "lat": 41.7077548,
  "lon": 22.8566138,
  "tags": {
    "name": "Музеј на град Берово",
    "name:en": "Berovo Town Museum",
    "tourism": "museum",
    "website": "http://www.berovo.gov.mk/index.php?option=com_content&view=article&id=76&Itemid=117"
  }
},
{
  "type": "node",
  "id": 487144996,
  "lat": 41.4457370,
  "lon": 21.9811109,
  "tags": {
    "amenity": "place_of_worship",
    "denomination": "orthodox",
    "name": "Manastir Sv. Spas",
    "religion": "christian"
  }
},
{
  "type": "node",
  "id": 495558836,
  "lat": 41.1776616,
  "lon": 20.6798350,
  "tags": {
    "historic": "monument",
    "int_name": "Spomenik na Revolucijata",
    "name": "Споменик на Револуцијата",
    "name:en": "Monument of the Revolution"
  }
},
{
  "type": "node",
  "id": 499973497,
  "lat": 41.7010390,
  "lon": 22.8590180,
  "tags": {
    "amenity": "place_of_worship",
    "building": "yes",
    "denomination": "orthodox",
    "name": "Манастир Св. Архангел Михаил",
    "name:en": "Monastery",
    "religion": "christian",
    "tourism": "attraction"
  }
},
{
  "type": "node",
  "id": 499973498,
  "lat": 41.7067630,
  "lon": 22.8570672,
  "tags": {
    "amenity": "place_of_worship",
    "denomination": "orthodox",
    "name": "Црква Рождество на Пресв. Богородица",
    "name:en": "Nativity of the Theotokos Church",
    "religion": "christian"
  }
},
{
  "type": "node",
  "id": 503526281,
  "lat": 41.7443530,
  "lon": 20.6993512,
  "tags": {
    "amenity": "place_of_worship",
    "denomination": "orthodox",
    "name": "Sv. Dimitrija",
    "name:mk": "Св. Димитрија",
    "religion": "christian"
  }
},
{
  "type": "node",
  "id": 513836478,
  "lat": 41.9639150,
  "lon": 22.7749405,
  "tags": {
    "addr:city": "Делчево",
    "addr:postcode": "2320",
    "addr:street": "Кеј на Слободата",
    "amenity": "place_of_worship",
    "denomination": "orthodox",
    "name": "Св. Богородица",
    "name:en": "Sv. Bogodorica",
    "religion": "christian"
  }
},
{
  "type": "node",
  "id": 529411995,
  "lat": 42.0234766,
  "lon": 21.3427234,
  "tags": {
    "amenity": "place_of_worship",
    "denomination": "orthodox",
    "int_name": "Sv. Arhangel Gavril",
    "name": "Св. Архангел Гаврил",
    "religion": "christian"
  }
},
{
  "type": "node",
  "id": 529811458,
  "lat": 41.4343634,
  "lon": 22.0163228,
  "tags": {
    "name": "Музеј Галерија Кавадарци",
    "name:en": "Muzej Galerija Kavadarci",
    "tourism": "museum"
  }
},
{
  "type": "node",
  "id": 534925163,
  "lat": 41.1123610,
  "lon": 20.7961416,
  "tags": {
    "addr:housenumber": "62",
    "addr:street": "Цар Самоил",
    "building": "house",
    "int_name": "Robev Family House",
    "name": "Куќа на Робевци",
    "name:en": "Robev Family House",
    "name:fr": "Maison de la famille Robev — Musée archéologique de la ville",
    "name:tr": "Robevi Evi",
    "name:zh": "罗贝夫家族宅邸国家博物馆",
    "opening_hours": "Tu-Su 09:00-14:00",
    "tourism": "museum",
    "website": "http://muzejohrid.mk/en/house-of-robev-family"
  }
},
{
  "type": "node",
  "id": 568027812,
  "lat": 41.1814338,
  "lon": 20.6777233,
  "tags": {
    "amenity": "place_of_worship",
    "name": "Св.Петка",
    "religion": "christian"
  }
},
{
  "type": "node",
  "id": 586460560,
  "lat": 41.9230028,
  "lon": 21.4887814,
  "tags": {
    "amenity": "place_of_worship",
    "religion": "muslim"
  }
},
{
  "type": "node",
  "id": 588949051,
  "lat": 41.9188485,
  "lon": 21.4796852,
  "tags": {
    "amenity": "place_of_worship",
    "religion": "muslim"
  }
},
{
  "type": "node",
  "id": 850569973,
  "lat": 42.2651061,
  "lon": 21.9531678,
  "tags": {
    "amenity": "place_of_worship",
    "name": "Кокино",
    "religion": "christian"
  }
},
{
  "type": "node",
  "id": 908273421,
  "lat": 41.9959035,
  "lon": 21.4314474,
  "tags": {
    "artist_name": "Валентина Стефановска",
    "artwork_type": "statue",
    "historic": "monument",
    "int_name": "Voin na Konj",
    "layer": "2",
    "memorial": "statue",
    "name": "Споменик на Александар Македонски",
    "name:en": "Statue of Alexander the Great",
    "start_date": "08.09.2011",
    "tourism": "artwork",
    "wikidata": "Q3497603",
    "wikimedia_commons": "Category:Warrior on Horseback (Skopje)",
    "wikipedia": "mk:Воин на коњ (Скопје)"
  }
},
{
  "type": "node",
  "id": 924623193,
  "lat": 41.6350875,
  "lon": 22.4677492,
  "tags": {
    "amenity": "place_of_worship",
    "int_name": "Sv.Trojca",
    "name": "Св.Тројца",
    "name:en": "Sv.Trojca",
    "religion": "christian",
    "tourism": "attraction"
  }
},
{
  "type": "node",
  "id": 1088079170,
  "lat": 41.8814412,
  "lon": 22.3307293,
  "tags": {
    "amenity": "place_of_worship"
  }
},
{
  "type": "node",
  "id": 1088079205,
  "lat": 41.8820608,
  "lon": 22.3328605,
  "tags": {
    "amenity": "place_of_worship",
    "denomination": "orthodox",
    "int_name": "Sv. Nedela",
    "name": "Св. Недела",
    "name:en": "Holy Sunday Church",
    "religion": "christian"
  }
},
{
  "type": "node",
  "id": 1207216943,
  "lat": 41.1187289,
  "lon": 20.8055843,
  "tags": {
    "amenity": "place_of_worship",
    "denomination": "sunni",
    "loc_name": "Крст џамија",
    "name": "Џамија Хаџи-Дургут",
    "name:en": "Haji Durgut Mosque",
    "religion": "muslim"
  }
},
{
  "type": "node",
  "id": 1272898175,
  "lat": 41.8841902,
  "lon": 22.5049622,
  "tags": {
    "addr:housenumber": "1a",
    "name": "Museum Teracotta",
    "tourism": "museum"
  }
},
{
  "type": "node",
  "id": 1272929082,
  "lat": 41.8821196,
  "lon": 22.5054658,
  "tags": {
    "amenity": "place_of_worship",
    "denomination": "orthodox",
    "name": "Св. Архангел Михаил",
    "religion": "christian"
  }
},
{
  "type": "node",
  "id": 1452854994,
  "lat": 41.6346281,
  "lon": 20.5620379,
  "tags": {
    "historic": "memorial",
    "name": "Lukov",
    "was:natural": "spring"
  }
},
{
  "type": "node",
  "id": 1475324917,
  "lat": 42.0609829,
  "lon": 21.3489729,
  "tags": {
    "amenity": "place_of_worship",
    "denomination": "orthodox",
    "is_in": "Orman",
    "name": "Манастир Св. 40 Маченици",
    "religion": "christian"
  }
},
{
  "type": "node",
  "id": 1475328742,
  "lat": 42.0586697,
  "lon": 21.3527926,
  "tags": {
    "historic": "archaeological_site",
    "is_in": "Orman",
    "name": "Rimska crkva"
  }
},
{
  "type": "node",
  "id": 1475331128,
  "lat": 42.0598924,
  "lon": 21.2983618,
  "tags": {
    "amenity": "place_of_worship",
    "building": "church",
    "denomination": "orthodox",
    "name": "Св. Атанас",
    "religion": "christian"
  }
},
{
  "type": "node",
  "id": 1475331129,
  "lat": 42.0843452,
  "lon": 21.3548716,
  "tags": {
    "archaeological_site": "fortification",
    "historic": "archaeological_site",
    "int_name": "Davina Kula",
    "name": "Давина Кула",
    "name:en": "Davina Kula"
  }
},
{
  "type": "node",
  "id": 1475333181,
  "lat": 42.0587494,
  "lon": 21.2786993,
  "tags": {
    "historic": "archaeological_site",
    "name": "Голема Кула - Кучково"
  }
},
{
  "type": "node",
  "id": 1475333182,
  "lat": 42.0585741,
  "lon": 21.2844339,
  "tags": {
    "historic": "archaeological_site",
    "name": "Мала Кула - Кучково"
  }
},
{
  "type": "node",
  "id": 1475334320,
  "lat": 42.0608563,
  "lon": 21.3158452,
  "tags": {
    "amenity": "place_of_worship",
    "denomination": "orthodox",
    "name": "Crkva Sv.Tripun",
    "religion": "christian"
  }
},
{
  "type": "node",
  "id": 1475356446,
  "lat": 42.0493212,
  "lon": 21.3388559,
  "tags": {
    "amenity": "place_of_worship",
    "is_in": "Volkovo",
    "name": "Св. Петка",
    "religion": "christian"
  }
},
{
  "type": "node",
  "id": 1475356449,
  "lat": 42.0500064,
  "lon": 21.3393280,
  "tags": {
    "amenity": "place_of_worship",
    "denomination": "orthodox",
    "is_in": "Volkovo",
    "name": "Св. Атанас",
    "religion": "christian"
  }
},
{
  "type": "node",
  "id": 1576507637,
  "lat": 42.1259051,
  "lon": 21.5968771,
  "tags": {
    "amenity": "place_of_worship",
    "religion": "muslim"
  }
},
{
  "type": "node",
  "id": 1708412126,
  "lat": 42.1355189,
  "lon": 21.7200501,
  "tags": {
    "historic": "monument",
    "layer": "2",
    "name": "Zena",
    "name:mk": "Жена"
  }
},
{
  "type": "node",
  "id": 1734402559,
  "lat": 42.0516811,
  "lon": 21.3110834,
  "tags": {
    "amenity": "place_of_worship",
    "denomination": "orthodox",
    "name": "Sv. Krstovden",
    "religion": "christian"
  }
},
{
  "type": "node",
  "id": 1734405545,
  "lat": 42.0592027,
  "lon": 21.3083108,
  "tags": {
    "amenity": "place_of_worship",
    "denomination": "orthodox",
    "name": "Sv. Spas-Kuckovo",
    "religion": "christian"
  }
},
{
  "type": "node",
  "id": 1734566388,
  "lat": 42.0660807,
  "lon": 21.3357012,
  "tags": {
    "amenity": "place_of_worship",
    "is_in": "Никиштане",
    "name": "Џамија Никиштане",
    "religion": "muslim"
  }
},
{
  "type": "node",
  "id": 1734579717,
  "lat": 42.0698583,
  "lon": 21.3939664,
  "tags": {
    "amenity": "place_of_worship",
    "denomination": "orthodox",
    "religion": "christian"
  }
},
{
  "type": "node",
  "id": 1734593430,
  "lat": 42.0766913,
  "lon": 21.3988480,
  "tags": {
    "historic": "archaeological_site",
    "name": "Gradiste kaj s.Brazda"
  }
},
{
  "type": "node",
  "id": 1734617087,
  "lat": 42.1076532,
  "lon": 21.3799578,
  "tags": {
    "amenity": "place_of_worship",
    "denomination": "orthodox",
    "int_name": "Св. Nikita",
    "name": "Св. Никита",
    "place_of_worship:type": "monastery",
    "religion": "christian"
  }
},
{
  "type": "node",
  "id": 1735110375,
  "lat": 42.0540808,
  "lon": 21.3135461,
  "tags": {
    "amenity": "place_of_worship",
    "denomination": "orthodox",
    "name": "Sv.Petka-Kuckovo",
    "religion": "christian"
  }
},
{
  "type": "node",
  "id": 1790461639,
  "lat": 41.3809777,
  "lon": 22.8122120,
  "tags": {
    "amenity": "place_of_worship",
    "name": "Evangelic-Methodist Church",
    "religion": "christian"
  }
},
{
  "type": "node",
  "id": 1790711188,
  "lat": 41.3962021,
  "lon": 22.9526962,
  "tags": {
    "historic": "monument"
  }
},
{
  "type": "node",
  "id": 1791491746,
  "lat": 41.3867493,
  "lon": 22.7529708,
  "tags": {
    "historic": "memorial"
  }
},
{
  "type": "node",
  "id": 1804911443,
  "lat": 40.9131639,
  "lon": 21.1797470,
  "tags": {
    "amenity": "place_of_worship",
    "denomination": "orthodox",
    "int_name": "Sv. Ilija",
    "name": "Св. Илија",
    "religion": "christian"
  }
},
{
  "type": "node",
  "id": 1804963753,
  "lat": 40.9131005,
  "lon": 20.7415162,
  "tags": {
    "amenity": "place_of_worship",
    "building": "church",
    "denomination": "orthodox",
    "name": "Црква Света Петка",
    "name:en": "Saint Petka Church",
    "religion": "christian",
    "tourism": "attraction"
  }
},
{
  "type": "node",
  "id": 1810969277,
  "lat": 41.1175675,
  "lon": 20.8137550,
  "tags": {
    "amenity": "place_of_worship",
    "denomination": "orthodox",
    "name": "Црква Св. Ѓoрѓијa",
    "name:en": "St. Gjorgjija Church",
    "name:mk": "Црква Св. Ѓoрѓијa",
    "religion": "christian"
  }
},
{
  "type": "node",
  "id": 1831180502,
  "lat": 41.9505936,
  "lon": 21.2991931,
  "tags": {
    "amenity": "place_of_worship",
    "denomination": "orthodox",
    "historic": "monument",
    "int_name": "Manastir Sv. Andrej",
    "name": "Манастир Св. Андреј",
    "name:en": "Monastery St. Andrej",
    "name:pl": "Cerkiew św. Andrzeja",
    "name:tr": "Monastery St. Andrej",
    "place_of_worship:type": "monastery",
    "religion": "christian",
    "tourism": "attraction"
  }
},
{
  "type": "node",
  "id": 1831247821,
  "lat": 41.9518330,
  "lon": 21.3042042,
  "tags": {
    "amenity": "place_of_worship",
    "denomination": "orthodox",
    "int_name": "Sv. Nikola",
    "name": "Св. Никола",
    "place_of_worship:type": "monastery",
    "religion": "christian",
    "tourism": "attraction"
  }
},
{
  "type": "node",
  "id": 1850562883,
  "lat": 42.0550347,
  "lon": 21.4554709,
  "tags": {
    "amenity": "place_of_worship",
    "name": "с.в Наум Охридски",
    "religion": "christian"
  }
},
{
  "type": "node",
  "id": 1850567836,
  "lat": 42.0719506,
  "lon": 21.4487798,
  "tags": {
    "amenity": "place_of_worship",
    "name": "Пресвета Богородица",
    "religion": "christian"
  }
},
{
  "type": "node",
  "id": 1853704787,
  "lat": 41.1871817,
  "lon": 22.7221034,
  "tags": {
    "name": "Музеј на Дојран",
    "tourism": "museum"
  }
},
{
  "type": "node",
  "id": 1855631088,
  "lat": 41.9857725,
  "lon": 21.4312278,
  "tags": {
    "amenity": "place_of_worship",
    "denomination": "orthodox",
    "name": "Света Петка",
    "religion": "christian",
    "wikidata": "Q12911930",
    "wikimedia_commons": "Category:St. Petka Church (Crniče)"
  }
},
{
  "type": "node",
  "id": 1857486060,
  "lat": 42.0017233,
  "lon": 21.4617772,
  "tags": {
    "historic": "monument",
    "layer": "1",
    "name": "Филип Втори"
  }
},
{
  "type": "node",
  "id": 1859114111,
  "lat": 41.9984602,
  "lon": 21.4349949,
  "tags": {
    "artwork_type": "statue",
    "historic": "memorial",
    "image": "https://upload.wikimedia.org/wikipedia/commons/d/d2/Philip_II_of_Macedon_monument_in_Skopje.JPG",
    "inscription": "Филип II Македонски",
    "memorial": "statue",
    "name": "Филип II Македонски",
    "name:de": "Philipp II. (Makedonien)",
    "name:en": "Philip II of Macedon",
    "name:pl": "Filip II Macedoński",
    "subject:wikidata": "Q130650",
    "subject:wikipedia": "mk:Филип II Македонски",
    "tourism": "artwork"
  }
},
{
  "type": "node",
  "id": 1864402613,
  "lat": 42.0604971,
  "lon": 21.2958493,
  "tags": {
    "amenity": "place_of_worship",
    "building": "church",
    "denomination": "orthodox",
    "name": "Св. Илија",
    "religion": "christian"
  }
},
{
  "type": "node",
  "id": 1866944575,
  "lat": 41.9983057,
  "lon": 21.4254968,
  "tags": {
    "artwork_type": "statue",
    "historic": "memorial",
    "inscription": "Св. Климент Охридски",
    "int_name": "Sv. Kliment Ohridski",
    "memorial": "statue",
    "name": "Св. Климент Охридски",
    "name:en": "Clement of Ohrid",
    "tourism": "artwork",
    "wikidata": "Q158504",
    "wikipedia": "mk:Свети Климент Охридски"
  }
},
{
  "type": "node",
  "id": 1867151652,
  "lat": 41.9993163,
  "lon": 21.4371620,
  "tags": {
    "artwork_type": "statue",
    "historic": "memorial",
    "inscription": "Скендербег",
    "memorial": "statue",
    "name": "Скендербег",
    "name:de": "Skanderbeg",
    "name:en": "Skanderbeg",
    "name:sq": "Skënderbeu",
    "tourism": "artwork",
    "wikidata": "Q12289741",
    "wikimedia_commons": "Category:Skenderbeg Monument (Skopje)",
    "wikipedia": "en:Skanderbeg"
  }
},
{
  "type": "node",
  "id": 1867606193,
  "lat": 40.8570205,
  "lon": 21.1195933,
  "tags": {
    "historic": "monument",
    "name": "Маркова Нога",
    "source": "Bing"
  }
},
{
  "type": "node",
  "id": 1879436069,
  "lat": 42.1706665,
  "lon": 21.8098380,
  "tags": {
    "historic": "archaeological_site",
    "historic:civilization": "prehistoric",
    "name": "Костоперска Карпа",
    "tourism": "attraction",
    "wikidata": "Q20570399",
    "wikipedia": "mk:Костоперска Карпа"
  }
},
{
  "type": "node",
  "id": 1879461479,
  "lat": 42.2633818,
  "lon": 21.9531180,
  "tags": {
    "archaeological_site": "megalith",
    "historic": "archaeological_site",
    "historic:period": "Bronze Age",
    "name": "Кокино",
    "name:mk": "Кокино",
    "tourism": "attraction",
    "wikidata": "Q1326977",
    "wikipedia": "mk:Кокино (локалитет)"
  }
},
{
  "type": "node",
  "id": 1964069865,
  "lat": 41.7882229,
  "lon": 21.9410619,
  "tags": {
    "amenity": "place_of_worship",
    "denomination": "orthodox",
    "int_name": "Sv. Bogorodica",
    "name": "Св. Богородица",
    "name:en": "Holy Mother of God",
    "religion": "christian"
  }
},
{
  "type": "node",
  "id": 1972521921,
  "lat": 41.0430407,
  "lon": 21.0056909,
  "tags": {
    "amenity": "place_of_worship",
    "religion": "muslim"
  }
},
{
  "type": "node",
  "id": 1995790447,
  "lat": 42.1355778,
  "lon": 21.7194275,
  "tags": {
    "historic": "monument",
    "int_name": "Josip Broz - Tito",
    "name": "Јосип Броз - Тито"
  }
},
{
  "type": "node",
  "id": 1999950866,
  "lat": 41.4085959,
  "lon": 22.2447656,
  "tags": {
    "name": "Museum of Wine",
    "name:mk": "Музеј на Биното",
    "tourism": "museum"
  }
},
{
  "type": "node",
  "id": 1999950879,
  "lat": 41.4091983,
  "lon": 22.2367525,
  "tags": {
    "amenity": "place_of_worship",
    "denomination": "macedonian_orthodox",
    "int_name": "Sv. Bogorodica",
    "name": "Св. Богородица",
    "name:en": "Mother of God",
    "religion": "christian"
  }
},
{
  "type": "node",
  "id": 2016287616,
  "lat": 41.3842763,
  "lon": 22.2918792,
  "tags": {
    "alt_name": "St. John's Church",
    "amenity": "place_of_worship",
    "denomination": "macedonian_orthodox",
    "name": "Св. Талалеј",
    "religion": "christian",
    "start_date": "1800"
  }
},
{
  "type": "node",
  "id": 2016289389,
  "lat": 41.3831513,
  "lon": 22.2878614,
  "tags": {
    "amenity": "place_of_worship",
    "denomination": "macedonian_orthodox",
    "int_name": "Manastir Sv. Nikola",
    "name": "Манастир Св. Никола",
    "name:en": "Monastery St. Nicholas",
    "religion": "christian"
  }
},
{
  "type": "node",
  "id": 2023133071,
  "lat": 41.9997804,
  "lon": 21.8606921,
  "tags": {
    "amenity": "place_of_worship",
    "denomination": "orthodox",
    "name": "Св. Петка",
    "religion": "christian"
  }
},
{
  "type": "node",
  "id": 2024605291,
  "lat": 42.2782511,
  "lon": 21.8500367,
  "tags": {
    "historic": "memorial",
    "int_name": "Memorijalen centar ASNOM",
    "memorial": "war_memorial",
    "name": "Меморијален центар АСНОМ",
    "name:en": "Memorial Center ASNOM",
    "tourism": "attraction"
  }
},
{
  "type": "node",
  "id": 2026119373,
  "lat": 41.7949320,
  "lon": 20.9108574,
  "tags": {
    "historic": "monument",
    "name": "Sahat Kula"
  }
},
{
  "type": "node",
  "id": 2026807108,
  "lat": 41.8289199,
  "lon": 21.6864385,
  "tags": {
    "amenity": "place_of_worship",
    "denomination": "orthodox",
    "name": "Manastir Sveta Bogorodica",
    "name:mk": "Манастир Св. Богородица",
    "religion": "christian",
    "tourism": "attraction"
  }
},
{
  "type": "node",
  "id": 2026906941,
  "lat": 41.5132230,
  "lon": 20.9609726,
  "tags": {
    "amenity": "place_of_worship",
    "name": "Hayati Baba Teqe",
    "religion": "muslim"
  }
},
{
  "type": "node",
  "id": 2026911763,
  "lat": 41.5119269,
  "lon": 20.9702432,
  "tags": {
    "historic": "monument",
    "name": "Саат кула",
    "name:sq": "Sahat Kulla"
  }
},
{
  "type": "node",
  "id": 2026912080,
  "lat": 41.5132572,
  "lon": 20.9697086,
  "tags": {
    "amenity": "place_of_worship",
    "religion": "muslim"
  }
},
{
  "type": "node",
  "id": 2026915603,
  "lat": 41.5121875,
  "lon": 20.9617402,
  "tags": {
    "amenity": "place_of_worship",
    "name": "Çulu Baba Teqe",
    "religion": "muslim"
  }
},
{
  "type": "node",
  "id": 2026921927,
  "lat": 41.5181592,
  "lon": 20.9658609,
  "tags": {
    "amenity": "place_of_worship",
    "name": "Balla Mëhalla",
    "religion": "muslim"
  }
},
{
  "type": "node",
  "id": 2026930302,
  "lat": 41.7140782,
  "lon": 21.7840512,
  "tags": {
    "historic": "monument",
    "name": "Саат кула"
  }
},
{
  "type": "node",
  "id": 2026975410,
  "lat": 41.2775784,
  "lon": 22.4937679,
  "tags": {
    "historic": "archaeological_site",
    "name": "Isar / Idomenae"
  }
},
{
  "type": "node",
  "id": 2051569337,
  "lat": 41.0738678,
  "lon": 20.8043628,
  "tags": {
    "amenity": "place_of_worship",
    "denomination": "orthodox",
    "int_name": "Sv. Stefan",
    "name": "Св. Стефан",
    "name:en": "St. Stephen",
    "name:lt": "Šv. Stefanas",
    "natural": "cave_entrance",
    "religion": "christian",
    "tourism": "attraction",
    "wikidata": "Q12293256",
    "wikipedia": "mk:Црква „Св. Стефан“ - Панцир"
  }
},
{
  "type": "node",
  "id": 2136716883,
  "lat": 42.1346962,
  "lon": 21.7192303,
  "tags": {
    "historic": "monument",
    "int_name": "Kude sat",
    "name": "Куде сат"
  }
},
{
  "type": "node",
  "id": 2138788013,
  "lat": 41.4293251,
  "lon": 21.7629669,
  "tags": {
    "ele": "727",
    "historic": "memorial",
    "name": "Ножот",
    "natural": "peak",
    "wikidata": "Q12273269",
    "wikipedia": "mk:Битка на Ножот"
  }
},
{
  "type": "node",
  "id": 2189840728,
  "lat": 41.3451182,
  "lon": 21.5519842,
  "tags": {
    "historic": "monument",
    "name": "Народен Херој Кузман Јосифоски-Питу",
    "name:en": "People's hero Kuzman Josifoski-Pitu",
    "name:mk": "Народен Херој Кузман Јосифоски-Питу"
  }
},
{
  "type": "node",
  "id": 2189840898,
  "lat": 41.3451518,
  "lon": 21.5542670,
  "tags": {
    "historic": "monument",
    "name": "Пеце Атанасоски"
  }
},
{
  "type": "node",
  "id": 2189840958,
  "lat": 41.3452617,
  "lon": 21.5522173,
  "tags": {
    "historic": "monument",
    "name": "Ѓорче Петров",
    "name:en": "Gjorche Petrov"
  }
},
{
  "type": "node",
  "id": 2269431831,
  "lat": 41.3736665,
  "lon": 21.2463296,
  "tags": {
    "historic": "monument",
    "name": "Никола Карев"
  }
},
{
  "type": "node",
  "id": 2279507279,
  "lat": 41.1805738,
  "lon": 20.6776078,
  "tags": {
    "name": "Д-р Никола Незлобински",
    "tourism": "museum"
  }
},
{
  "type": "node",
  "id": 2316156260,
  "lat": 41.0252483,
  "lon": 21.3365121,
  "tags": {
    "historic": "memorial"
  }
},
{
  "type": "node",
  "id": 2316156278,
  "lat": 41.0246150,
  "lon": 21.3368929,
  "tags": {
    "historic": "memorial",
    "name": "Стефан Наумов-Стив",
    "name:en": "Stefan Naumov-Stiv"
  }
},
{
  "type": "node",
  "id": 2323236969,
  "lat": 41.1423016,
  "lon": 22.5090711,
  "tags": {
    "tourism": "museum"
  }
},
{
  "type": "node",
  "id": 2323236973,
  "lat": 41.1401322,
  "lon": 22.5051926,
  "tags": {
    "historic": "memorial",
    "memorial": "statue"
  }
},
{
  "type": "node",
  "id": 2327281126,
  "lat": 41.3649692,
  "lon": 21.2497316,
  "tags": {
    "historic": "monument",
    "int_name": "Pitu Guli",
    "name": "Споменик на Питу Гули",
    "name:en": "Statue of Pitu Guli"
  }
},
{
  "type": "node",
  "id": 2330629820,
  "lat": 41.3653856,
  "lon": 21.2484409,
  "tags": {
    "historic": "monument",
    "inscription": "Наум Наумоски-Борче\n01.09.1920 - 28.09.1960",
    "material": "bronze",
    "memorial": "bust",
    "name": "Наум Наумоски-Борче",
    "name:en": "Naum Naumoski-Borche",
    "name:mk": "Наум Наумоски-Борче"
  }
},
{
  "type": "node",
  "id": 2360747213,
  "lat": 41.1458586,
  "lon": 22.5001795,
  "tags": {
    "historic": "monument",
    "name": "Два Коња"
  }
},
{
  "type": "node",
  "id": 2373710718,
  "lat": 42.0836218,
  "lon": 21.9862589,
  "tags": {
    "historic": "archaeological_site",
    "int_name": "Cocev Kamen",
    "name": "Цоцев Камен",
    "name:en": "Cocev Kamen",
    "place": "locality",
    "tourism": "attraction",
    "wikidata": "Q599269"
  }
},
{
  "type": "node",
  "id": 2381908566,
  "lat": 40.9820235,
  "lon": 21.7749801,
  "tags": {
    "amenity": "place_of_worship",
    "denomination": "orthodox",
    "name": "Св. Преображение",
    "religion": "christian"
  }
},
{
  "type": "node",
  "id": 2389661329,
  "lat": 42.0096173,
  "lon": 21.3188246,
  "tags": {
    "amenity": "place_of_worship",
    "religion": "muslim"
  }
},
{
  "type": "node",
  "id": 2411429061,
  "lat": 41.8286581,
  "lon": 21.6894737,
  "tags": {
    "amenity": "place_of_worship",
    "denomination": "orthodox",
    "name": "Manastir Sveti Jovan",
    "name:mk": "Св. Јован Крстител",
    "religion": "christian",
    "tourism": "attraction"
  }
},
{
  "type": "node",
  "id": 2472713588,
  "lat": 42.1507701,
  "lon": 21.7322948,
  "tags": {
    "amenity": "place_of_worship",
    "denomination": "orthodox",
    "name": "Св. Архангел Михаил",
    "religion": "christian"
  }
},
{
  "type": "node",
  "id": 2535151449,
  "lat": 41.4182976,
  "lon": 22.0180718,
  "tags": {
    "amenity": "place_of_worship",
    "building": "yes",
    "denomination": "orthodox",
    "name": "Успение на Пресвета Богородица",
    "religion": "christian"
  }
},
{
  "type": "node",
  "id": 2535153634,
  "lat": 41.4184594,
  "lon": 22.0181317,
  "tags": {
    "name": "Спомен куќа на Страшо Пинџур",
    "name:de": "Gedenkstätte Haus - Strascho Pindjur",
    "name:en": "Memorial house - Strasho Pindjur",
    "tourism": "museum"
  }
},
{
  "type": "node",
  "id": 2545342051,
  "lat": 40.9765203,
  "lon": 20.9119981,
  "tags": {
    "historic": "monument",
    "name": "Преспанско Советување"
  }
},
{
  "type": "node",
  "id": 2545347133,
  "lat": 41.0043605,
  "lon": 20.9368812,
  "tags": {
    "amenity": "place_of_worship",
    "denomination": "orthodox",
    "religion": "christian"
  }
},
{
  "type": "node",
  "id": 2562687515,
  "lat": 42.0143848,
  "lon": 22.4743204,
  "tags": {
    "amenity": "place_of_worship",
    "denomination": "orthodox",
    "name": "Св. Симеон Столпник",
    "religion": "christian"
  }
},
{
  "type": "node",
  "id": 2574272024,
  "lat": 42.1760396,
  "lon": 22.2929614,
  "tags": {
    "addr:city": "Крива Паланка",
    "addr:housename": "с.конопница",
    "addr:postcode": "1330",
    "addr:street": "Конопница",
    "amenity": "place_of_worship",
    "denomination": "orthodox",
    "name": "Теодор Тирон",
    "religion": "christian"
  }
},
{
  "type": "node",
  "id": 2578029313,
  "lat": 42.2020133,
  "lon": 22.3348959,
  "tags": {
    "addr:city": "Kriva Palanka",
    "addr:postcode": "1330",
    "addr:street": "Sveti Joakim Osogovski",
    "name": "City Museum",
    "tourism": "museum"
  }
},
{
  "type": "node",
  "id": 2592611970,
  "lat": 41.9289057,
  "lon": 21.5229042,
  "tags": {
    "amenity": "place_of_worship",
    "denomination": "orthodox",
    "name": "Св.Петка",
    "religion": "christian"
  }
},
{
  "type": "node",
  "id": 2598104053,
  "lat": 41.3475544,
  "lon": 21.5564074,
  "tags": {
    "historic": "monument",
    "name": "Карпалак"
  }
},
{
  "type": "node",
  "id": 2616082758,
  "lat": 42.1491368,
  "lon": 21.7853235,
  "tags": {
    "historic": "memorial",
    "name": "Zebrnjak",
    "name:mk": "Зебрњак",
    "name:sr": "Зебрњак",
    "wikidata": "Q3400817",
    "wikipedia": "en:Zebrnjak"
  }
},
{
  "type": "node",
  "id": 2670727638,
  "lat": 41.4350382,
  "lon": 22.6401158,
  "tags": {
    "amenity": "place_of_worship",
    "name": "Католичка црква"
  }
},
{
  "type": "node",
  "id": 2759245083,
  "lat": 41.1126936,
  "lon": 20.7995376,
  "tags": {
    "artwork_type": "statue",
    "historic": "monument",
    "int_name": "Saint Klement of Ohrid",
    "name": "Свети Климент Охридски",
    "name:en": "Monument St. Clement Ohridski",
    "name:fr": "Saint Clément d’Ohrid",
    "name:tr": "Aziz Kliment Anıtı",
    "tourism": "artwork",
    "wikidata": "Q158504",
    "wikipedia": "mk:Свети Климент Охридски"
  }
},
{
  "type": "node",
  "id": 2759253188,
  "lat": 41.1120476,
  "lon": 20.7999940,
  "tags": {
    "artwork_type": "statue",
    "historic": "monument",
    "int_name": "Saints Cyril and Methodius",
    "name": "Свети Кирил и Методиј",
    "name:en": "Monuments of Saints Cyril and Methodius",
    "name:fr": "Saints Cyrille et Méthode",
    "name:mk": "Saints Cyril and Methodius",
    "name:tr": "Aziz Kiril ve Aziz Metodius Anıtı",
    "tourism": "artwork",
    "wikidata": "Q239925",
    "wikipedia": "mk:Св. Кирил и Методиј"
  }
},
{
  "type": "node",
  "id": 2759263738,
  "lat": 41.1122955,
  "lon": 20.7990226,
  "tags": {
    "artwork_type": "statue",
    "historic": "monument",
    "int_name": "Saint Naum",
    "name": "Свети Наум Охридски Чудотворец",
    "name:en": "Monument to St. Naum of Ohrid",
    "name:fr": "Saint Naum",
    "name:tr": "Aziz Naum Anıtı",
    "tourism": "artwork",
    "wikidata": "Q350061",
    "wikipedia": "mk:Свети Наум Охридски Чудотворец"
  }
},
{
  "type": "node",
  "id": 2829462221,
  "lat": 42.0853984,
  "lon": 21.9627449,
  "tags": {
    "historic": "archaeological_site",
    "name": "Мачка камен",
    "name:en": "Macka kamen"
  }
},
{
  "type": "node",
  "id": 2836787184,
  "lat": 42.0050975,
  "lon": 20.9429220,
  "tags": {
    "historic": "memorial"
  }
},
{
  "type": "node",
  "id": 2851570672,
  "lat": 41.4182291,
  "lon": 21.0770931,
  "tags": {
    "historic": "monument",
    "name": "Христо Узунов",
    "wikidata": "Q3407165",
    "wikipedia": "mk:Христо Узунов"
  }
},
{
  "type": "node",
  "id": 2884502200,
  "lat": 41.9853082,
  "lon": 21.4716123,
  "tags": {
    "amenity": "place_of_worship",
    "religion": "christian"
  }
},
{
  "type": "node",
  "id": 2884502203,
  "lat": 41.9832841,
  "lon": 21.4764262,
  "tags": {
    "amenity": "place_of_worship",
    "religion": "christian"
  }
},
{
  "type": "node",
  "id": 2884502204,
  "lat": 41.9858681,
  "lon": 21.4684081,
  "tags": {
    "amenity": "place_of_worship",
    "denomination": "orthodox",
    "name": "Црква „Рождество на Пресвета Богородица“ - Ново Лисиче",
    "religion": "christian",
    "wikidata": "Q61120872",
    "wikimedia_commons": "Category:Nativity of the Theotokos Church (Novo Lisiče)",
    "wikipedia": "mk:Црква „Рождество на Пресвета Богородица“ - Ново Лисиче"
  }
},
{
  "type": "node",
  "id": 2884502205,
  "lat": 41.9783403,
  "lon": 21.4961010,
  "tags": {
    "addr:street": "Ѓорѓи Капчев",
    "amenity": "place_of_worship",
    "denomination": "orthodox",
    "name": "Црква „Св. Великомаченик Георгиј“",
    "religion": "christian",
    "wikidata": "Q109773475",
    "wikipedia": "mk:Црква „Св. Великомаченик Георгиј“ - Горно Лисиче"
  }
},
{
  "type": "node",
  "id": 2887575436,
  "lat": 41.9644772,
  "lon": 21.4936632,
  "tags": {
    "addr:city": "Скопје",
    "addr:postcode": "1000",
    "addr:street": "Горно Лисиче",
    "amenity": "place_of_worship",
    "name": "Црква „Св. Апостоли Петар и Павле“",
    "name:en": "Saints Peter and Paul the Apostles Church",
    "name:mk": "Црква „Св. Апостоли Петар и Павле“",
    "wikidata": "Q20569488",
    "wikimedia_commons": "Category:Sts. Peter and Paul Church (Gorno Lisiče)",
    "wikipedia": "mk:Црква „Св. Апостоли Петар и Павле“ - Горно Лисиче"
  }
},
{
  "type": "node",
  "id": 3011061689,
  "lat": 41.0527880,
  "lon": 20.8128079,
  "tags": {
    "amenity": "place_of_worship",
    "building": "church",
    "denomination": "orthodox",
    "name": "Sv. Mina",
    "religion": "christian"
  }
},
{
  "type": "node",
  "id": 3011066257,
  "lat": 41.1164880,
  "lon": 20.8001190,
  "tags": {
    "amenity": "place_of_worship",
    "denomination": "sunni",
    "name": "Зејнел Абидин-пашина џамија",
    "name:en": "Zeynel Abidin Pasha Mosque",
    "name:tr": "Pir Muhammed Mehmed Hayati Halveti Dergah ve Türbesi",
    "religion": "muslim"
  }
},
{
  "type": "node",
  "id": 3039854149,
  "lat": 41.9062629,
  "lon": 20.9636151,
  "tags": {
    "historic": "monument",
    "name": "Споменик на жртви од НОВ"
  }
},
{
  "type": "node",
  "id": 3039868345,
  "lat": 41.8829405,
  "lon": 20.9917833,
  "tags": {
    "addr:city": "Tenovo",
    "amenity": "place_of_worship",
    "name": "Црква „Св. Недела“ - Теново",
    "religion": "christian"
  }
},
{
  "type": "node",
  "id": 3109743674,
  "lat": 41.1611747,
  "lon": 22.5011826,
  "tags": {
    "amenity": "place_of_worship",
    "denomination": "orthodox",
    "religion": "christian"
  }
},
{
  "type": "node",
  "id": 3175764807,
  "lat": 42.0594793,
  "lon": 21.5096450,
  "tags": {
    "addr:city": "cresevo",
    "amenity": "place_of_worship",
    "denomination": "orthodox",
    "name": "Manastir Svetka Petka",
    "religion": "christian"
  }
},
{
  "type": "node",
  "id": 3263433907,
  "lat": 41.4748537,
  "lon": 22.5651714,
  "tags": {
    "amenity": "place_of_worship",
    "denomination": "orthodox",
    "name": "Манастир Св. Богородица Елеуса",
    "name:en": "Monastery of the Mother of God Eleusa",
    "religion": "christian",
    "tourism": "attraction"
  }
},
{
  "type": "node",
  "id": 3263474161,
  "lat": 41.4505759,
  "lon": 22.5902413,
  "tags": {
    "amenity": "place_of_worship",
    "denomination": "orthodox",
    "name": "Манастир Св. Леонтиј",
    "name:en": "St. Leontius Monastery",
    "religion": "christian",
    "tourism": "attraction"
  }
},
{
  "type": "node",
  "id": 3409068903,
  "lat": 41.3460556,
  "lon": 21.5524989,
  "tags": {
    "historic": "monument",
    "name": "Александар Македонски"
  }
},
{
  "type": "node",
  "id": 3409068904,
  "lat": 41.3462544,
  "lon": 21.5528281,
  "tags": {
    "historic": "monument",
    "name": "Методија Андонов-Ченто"
  }
},
{
  "type": "node",
  "id": 3409074126,
  "lat": 41.3462194,
  "lon": 21.5532430,
  "tags": {
    "historic": "monument",
    "name": "Св. Никола"
  }
},
{
  "type": "node",
  "id": 3418320912,
  "lat": 41.8229140,
  "lon": 21.7360635,
  "tags": {
    "historic": "memorial",
    "name": "Масакр кај Пуста Кула"
  }
},
{
  "type": "node",
  "id": 3456913802,
  "lat": 41.3434323,
  "lon": 21.5479723,
  "tags": {
    "historic": "monument",
    "name": "Карпалак 2001"
  }
},
{
  "type": "node",
  "id": 3457966074,
  "lat": 41.3341123,
  "lon": 21.5546460,
  "tags": {
    "historic": "monument",
    "name": "Крипта",
    "name:en": "Cript"
  }
},
{
  "type": "node",
  "id": 3499469386,
  "lat": 41.7959966,
  "lon": 20.9179313,
  "tags": {
    "amenity": "place_of_worship",
    "denomination": "orthodox",
    "name": "Sveta Petka",
    "religion": "christian"
  }
},
{
  "type": "node",
  "id": 3642663981,
  "lat": 41.3454560,
  "lon": 21.5548417,
  "tags": {
    "historic": "monument",
    "name": "Итар Пејо",
    "name:en": "Sly Peter"
  }
},
{
  "type": "node",
  "id": 3650611402,
  "lat": 41.7004213,
  "lon": 21.0333308,
  "tags": {
    "amenity": "place_of_worship",
    "denomination": "orthodox",
    "name": "Манастир Св. Никола",
    "religion": "christian"
  }
},
{
  "type": "node",
  "id": 3660971795,
  "lat": 41.0518754,
  "lon": 21.1673647,
  "tags": {
    "amenity": "place_of_worship",
    "denomination": "orthodox",
    "name": "Manastir Sveta petka",
    "religion": "christian"
  }
},
{
  "type": "node",
  "id": 3668592669,
  "lat": 41.9769543,
  "lon": 21.4084150,
  "tags": {
    "alt_name": "Црква „Мала Богородица Водњанска“",
    "amenity": "place_of_worship",
    "denomination": "orthodox",
    "name": "Црква „Рождество на Пресвета Богородица“",
    "religion": "christian"
  }
},
{
  "type": "node",
  "id": 3672030302,
  "lat": 41.8024700,
  "lon": 20.8071214,
  "tags": {
    "amenity": "place_of_worship",
    "denomination": "orthodox",
    "name": "Св. Мина",
    "religion": "christian"
  }
},
{
  "type": "node",
  "id": 3672030303,
  "lat": 41.8085051,
  "lon": 20.7881466,
  "tags": {
    "amenity": "place_of_worship",
    "denomination": "orthodox",
    "name": "Св. Атанасиј",
    "religion": "christian"
  }
},
{
  "type": "node",
  "id": 3687056616,
  "lat": 41.6645167,
  "lon": 20.7334014,
  "tags": {
    "amenity": "place_of_worship",
    "name": "Црква Св. Николе",
    "religion": "christian"
  }
},
{
  "type": "node",
  "id": 3694794582,
  "lat": 41.9676760,
  "lon": 22.8076575,
  "tags": {
    "addr:city": "Ѕвегор",
    "addr:postcode": "2320",
    "addr:street": "Street 2 (Лукан Маала)",
    "amenity": "place_of_worship",
    "denomination": "orthodox",
    "name": "Св. Јован Крстител",
    "name:en": "Sv. Jovan Krstitel",
    "religion": "christian"
  }
},
{
  "type": "node",
  "id": 3694881124,
  "lat": 41.9751620,
  "lon": 22.8187714,
  "tags": {
    "historic": "monument",
    "name": "Dedo Jakim - Mill",
    "name:mk": "Воденицата на Дедо Јаким"
  }
},
{
  "type": "node",
  "id": 3694922580,
  "lat": 41.9769054,
  "lon": 22.8193451,
  "tags": {
    "historic": "monument",
    "name": "Ilin Kamen",
    "name:mk": "Илин Камен"
  }
},
{
  "type": "node",
  "id": 3695208787,
  "lat": 41.9668611,
  "lon": 22.7768724,
  "tags": {
    "historic": "monument",
    "name": "Гоце Делчев (Биста)",
    "name:en": "Goce Delchev"
  }
},
{
  "type": "node",
  "id": 3695208788,
  "lat": 41.9643843,
  "lon": 22.7742882,
  "tags": {
    "historic": "monument",
    "name": "Гоце Делчев",
    "name:en": "Goce Delchev"
  }
},
{
  "type": "node",
  "id": 3695321380,
  "lat": 41.9659677,
  "lon": 22.7595526,
  "tags": {
    "amenity": "place_of_worship",
    "denomination": "orthodox",
    "name": "Св. Богородица Балаклија - манастир",
    "religion": "christian"
  }
},
{
  "type": "node",
  "id": 3695758775,
  "lat": 41.9654570,
  "lon": 22.7692342,
  "tags": {
    "amenity": "place_of_worship",
    "name": "Џамија - Султан Фатих Мехмет II",
    "name:en": "Sultan Fatih Mehmet II - Mosque",
    "religion": "muslim"
  }
},
{
  "type": "node",
  "id": 3695770497,
  "lat": 41.9653801,
  "lon": 22.7716387,
  "tags": {
    "historic": "monument",
    "name": "Споменик на паднати борци во НОБ"
  }
},
{
  "type": "node",
  "id": 3695988841,
  "lat": 41.9664768,
  "lon": 22.7729986,
  "tags": {
    "name": "Музеј на град Делчево",
    "name:en": "City Museum",
    "tourism": "museum"
  }
},
{
  "type": "node",
  "id": 3696061335,
  "lat": 41.9641339,
  "lon": 22.7747523,
  "tags": {
    "addr:city": "Делчево",
    "addr:postcode": "2320",
    "addr:street": "Кеј на Слободата",
    "amenity": "place_of_worship",
    "name": "Св. Наум",
    "name:en": "St. Naum",
    "religion": "christian"
  }
},
{
  "type": "node",
  "id": 3696061336,
  "lat": 41.9669918,
  "lon": 22.7779676,
  "tags": {
    "amenity": "place_of_worship",
    "name": "Св. Климент Охридски",
    "name:en": "St. Kliment Ohridski",
    "religion": "christian"
  }
},
{
  "type": "node",
  "id": 3696580046,
  "lat": 41.9661617,
  "lon": 22.7728440,
  "tags": {
    "historic": "monument"
  }
},
{
  "type": "node",
  "id": 3696656682,
  "lat": 41.9425359,
  "lon": 22.7954411,
  "tags": {
    "historic": "monument",
    "name": "Кула",
    "name:en": "Kula"
  }
},
{
  "type": "node",
  "id": 3696762223,
  "lat": 42.0238942,
  "lon": 22.7229364,
  "tags": {
    "amenity": "place_of_worship",
    "name": "Св. Петка",
    "name:en": "Sv. Petka (from 14th Century)",
    "religion": "christian"
  }
},
{
  "type": "node",
  "id": 3704816792,
  "lat": 41.9414253,
  "lon": 22.7930159,
  "tags": {
    "amenity": "place_of_worship",
    "name": "Св. Ѓорги",
    "name:en": "St. Georgi",
    "religion": "christian"
  }
},
{
  "type": "node",
  "id": 3705174923,
  "lat": 41.9010303,
  "lon": 22.7303965,
  "tags": {
    "amenity": "place_of_worship",
    "name": "Св. Пантелејмон",
    "name:en": "St. Pantelejmon",
    "religion": "christian"
  }
},
{
  "type": "node",
  "id": 3713662739,
  "lat": 41.9952169,
  "lon": 21.4261530,
  "tags": {
    "artwork_type": "statue",
    "historic": "memorial",
    "memorial": "statue",
    "name": "Josip Broz Tito",
    "subject:wikidata": "Q9161",
    "tourism": "artwork"
  }
},
{
  "type": "node",
  "id": 3782607256,
  "lat": 41.4377701,
  "lon": 22.7902607,
  "tags": {
    "amenity": "place_of_worship",
    "religion": "christian"
  }
},
{
  "type": "node",
  "id": 3786106917,
  "lat": 41.6167785,
  "lon": 22.3168135,
  "tags": {
    "amenity": "place_of_worship",
    "denomination": "orthodox",
    "name": "Св.Пантелејмон",
    "religion": "christian"
  }
},
{
  "type": "node",
  "id": 4016402507,
  "lat": 41.3779361,
  "lon": 22.3927330,
  "tags": {
    "amenity": "place_of_worship",
    "disused": "yes",
    "name": "св. Петка",
    "note": "Exact location to be verified",
    "religion": "christian"
  }
},
{
  "type": "node",
  "id": 4059931649,
  "lat": 41.8126490,
  "lon": 21.6647825,
  "tags": {
    "amenity": "place_of_worship",
    "denomination": "orthodox",
    "int_name": "Manastir Sveti Ilija",
    "name": "Manastir Sveti Ilija",
    "name:de": "Kloster Sankt Elia",
    "name:en": "Monastery of Saint Ellyah",
    "religion": "christian"
  }
},
{
  "type": "node",
  "id": 4064759493,
  "lat": 42.0758863,
  "lon": 22.1831257,
  "tags": {
    "addr:city": "Кратово",
    "amenity": "place_of_worship",
    "denomination": "orthodox",
    "int_name": "Sv. Jovan Krstitel",
    "name": "Св. Јован Крстител",
    "name:en": "St. John the Baptist",
    "religion": "christian",
    "tourism": "attraction"
  }
},
{
  "type": "node",
  "id": 4078676807,
  "lat": 41.1393670,
  "lon": 22.5093733,
  "tags": {
    "historic": "monument",
    "name": "Леонид Јанков"
  }
},
{
  "type": "node",
  "id": 4128156209,
  "lat": 41.9977079,
  "lon": 21.4339766,
  "tags": {
    "artwork_type": "statue",
    "historic": "memorial",
    "inscription": "Св. Кирил и Методиј",
    "int_name": "Sv. Kiril i Metodi",
    "memorial": "statue",
    "name": "Св. Кирил и Методиј",
    "name:de": "Kyrill und Method",
    "name:en": "Saints Cyril and Methodius",
    "subject:wikidata": "Q239925",
    "subject:wikipedia": "mk:Св. Кирил и Методиј",
    "tourism": "artwork"
  }
},
{
  "type": "node",
  "id": 4128156210,
  "lat": 41.9975624,
  "lon": 21.4341509,
  "tags": {
    "artwork_type": "statue",
    "historic": "memorial",
    "inscription": "Св. Климент Охридски и Наум Охридски Чудотворец",
    "memorial": "statue",
    "name": "Св. Климент Охридски и Наум Охридски Чудотворец",
    "name:en": "Saints Clement of Ohrid and Naum",
    "tourism": "artwork",
    "wikipedia": "mk:Свети Климент Охридски;mk:Свети Наум Охридски Чудотворец"
  }
},
{
  "type": "node",
  "id": 4136930357,
  "lat": 41.0790945,
  "lon": 20.8235095,
  "tags": {
    "amenity": "place_of_worship",
    "denomination": "orthodox",
    "name:en": "Presveta Bogorodica",
    "religion": "christian"
  }
},
{
  "type": "node",
  "id": 4149143991,
  "lat": 41.9953917,
  "lon": 21.4313414,
  "tags": {
    "addr:postcode": "1000",
    "artist_name": "Димитар Филиповски",
    "artwork_type": "statue",
    "historic": "memorial",
    "inscription": "Цар Самоил",
    "memorial": "statue",
    "name": "Цар Самоил",
    "name:de": "Zar Samuil",
    "name:en": "Tsar Samuel",
    "start_date": "28.06.2011",
    "tourism": "artwork",
    "wikidata": "Q12910631",
    "wikimedia_commons": "Category:Samuel's Monument (Skopje)",
    "wikipedia": "mk:Споменик на Цар Самоил (Скопје)"
  }
},
{
  "type": "node",
  "id": 4154122109,
  "lat": 41.2251669,
  "lon": 21.4329692,
  "tags": {
    "historic": "monument"
  }
},
{
  "type": "node",
  "id": 4161113452,
  "lat": 41.9964949,
  "lon": 21.4321474,
  "tags": {
    "artwork_type": "statue",
    "historic": "memorial",
    "inscription": "Даме Груев",
    "memorial": "statue",
    "name": "Даме Груев",
    "name:de": "Dame Gruew",
    "name:en": "Dame Gruev",
    "name:fr": "Damé Grouev",
    "name:mk": "Даме Груев",
    "name:sr": "Даме Груев",
    "subject:wikidata": "Q983917",
    "subject:wikipedia": "mk:Даме Груев",
    "tourism": "artwork"
  }
},
{
  "type": "node",
  "id": 4161113453,
  "lat": 41.9968799,
  "lon": 21.4323054,
  "tags": {
    "artist_name": "Роза Павлеска",
    "artwork_type": "statue",
    "historic": "memorial",
    "inscription": "Јустинијан I",
    "int_name": "Justinian I.",
    "memorial": "statue",
    "name": "Јустинијан I",
    "name:de": "Justinian I.",
    "name:en": "Justinian I",
    "name:fr": "Justinien Ier",
    "name:grc": "Ἰουστινιανός Α'",
    "start_date": "16.06.2011",
    "tourism": "artwork",
    "wikidata": "Q12910626",
    "wikimedia_commons": "Category:Monument of Iustinianus I (Skopje)",
    "wikipedia": "mk:Споменик на Јустинијан I"
  }
},
{
  "type": "node",
  "id": 4161249330,
  "lat": 41.9979046,
  "lon": 21.4344182,
  "tags": {
    "artwork_type": "statue",
    "historic": "memorial",
    "inscription": "Олимпија",
    "memorial": "statue",
    "name": "Олимпија",
    "name:de": "Olympias von Epirus",
    "name:en": "Olympias",
    "subject:wikidata": "Q223134",
    "subject:wikipedia": "mk:Олимпија",
    "tourism": "artwork"
  }
},
{
  "type": "node",
  "id": 4183631289,
  "lat": 41.9933030,
  "lon": 21.4337226,
  "tags": {
    "historic": "monument",
    "name": "Прометеј",
    "name:en": "Prometheus",
    "name:tr": "Prometheus"
  }
},
{
  "type": "node",
  "id": 4242928035,
  "lat": 41.9834333,
  "lon": 21.4391060,
  "tags": {
    "historic": "monument",
    "name": "Тодор Александров"
  }
},
{
  "type": "node",
  "id": 4247632191,
  "lat": 41.8581015,
  "lon": 20.8897368,
  "tags": {
    "amenity": "place_of_worship",
    "building": "mosque",
    "denomination": "sunni",
    "name": "џа́мија",
    "religion": "muslim"
  }
},
{
  "type": "node",
  "id": 4247632891,
  "lat": 41.8188966,
  "lon": 20.8872549,
  "tags": {
    "amenity": "place_of_worship",
    "denomination": "sunni",
    "name": "џа́мија",
    "religion": "muslim"
  }
},
{
  "type": "node",
  "id": 4247659289,
  "lat": 41.8345329,
  "lon": 20.8835803,
  "tags": {
    "addr:postcode": "1238",
    "amenity": "place_of_worship",
    "name": "Church"
  }
},
{
  "type": "node",
  "id": 4247660589,
  "lat": 41.8670645,
  "lon": 20.8920472,
  "tags": {
    "amenity": "place_of_worship",
    "building": "mosque",
    "denomination": "sunni",
    "name": "џа́мија",
    "religion": "muslim"
  }
},
{
  "type": "node",
  "id": 4266031693,
  "lat": 41.9867490,
  "lon": 21.4369668,
  "tags": {
    "historic": "monument",
    "name": "Стара Рампа"
  }
},
{
  "type": "node",
  "id": 4271160712,
  "lat": 41.9936684,
  "lon": 21.4317487,
  "tags": {
    "historic": "monument",
    "name": "Бегова кула",
    "name:de": "Turm des Bey",
    "name:en": "Bey's Tower",
    "name:fr": "Tour du Bey",
    "name:tr": "Bey kulesi",
    "tourism": "attraction"
  }
},
{
  "type": "node",
  "id": 4278022934,
  "lat": 41.4166941,
  "lon": 22.7549207,
  "tags": {
    "historic": "monument",
    "name": "Гоце Делчев"
  }
},
{
  "type": "node",
  "id": 4306447780,
  "lat": 41.3661079,
  "lon": 21.6749495,
  "tags": {
    "historic": "memorial",
    "memorial": "war_memorial",
    "name": "Борка Талески-Модерното / Лазо Филиповски-Лавски",
    "name:en": "Borka Taleski / Lazo Filipovski"
  }
},
{
  "type": "node",
  "id": 4332828390,
  "lat": 41.9779014,
  "lon": 21.4642214,
  "tags": {
    "addr:street": "Булевар Србија",
    "amenity": "place_of_worship",
    "check_date": "2023-11-24",
    "denomination": "catholic",
    "name": "Крст",
    "religion": "christian"
  }
},
{
  "type": "node",
  "id": 4351691820,
  "lat": 40.9142149,
  "lon": 20.7412554,
  "tags": {
    "historic": "memorial",
    "memorial": "statue",
    "name": "Свети Наум",
    "name:mk": "Свети Наум",
    "name:ru": "Святой Наум",
    "name:sq": "Shën Naumi"
  }
},
{
  "type": "node",
  "id": 4356214629,
  "lat": 41.1083525,
  "lon": 21.0102717,
  "tags": {
    "amenity": "place_of_worship",
    "denomination": "orthodox",
    "name": "Св.Илија",
    "name:en": "St.Ilija",
    "name:mk": "Св.Илија",
    "religion": "christian"
  }
},
{
  "type": "node",
  "id": 4357104593,
  "lat": 41.7364573,
  "lon": 22.1901029,
  "tags": {
    "historic": "monument"
  }
},
{
  "type": "node",
  "id": 4357166289,
  "lat": 41.7364050,
  "lon": 22.1903758,
  "tags": {
    "historic": "monument",
    "name": "Споменик на загинатите евреи"
  }
},
{
  "type": "node",
  "id": 4365876494,
  "lat": 42.0008530,
  "lon": 21.4375046,
  "tags": {
    "historic": "monument",
    "int_name": "Murat Paşa Camii",
    "name": "Мустафа-пашина џамија",
    "name:en": "Murat Pasha Mosque",
    "name:tr": "Murat Paşa Camii"
  }
},
{
  "type": "node",
  "id": 4375579208,
  "lat": 41.5551579,
  "lon": 20.9826690,
  "tags": {
    "amenity": "place_of_worship",
    "religion": "muslim"
  }
},
{
  "type": "node",
  "id": 4380846206,
  "lat": 41.9949279,
  "lon": 21.4108745,
  "tags": {
    "historic": "monument",
    "name": "Споменик на Јуриј Гагарин",
    "name:en": "Yuri Gagarin Monument"
  }
},
{
  "type": "node",
  "id": 4386764089,
  "lat": 41.9930188,
  "lon": 21.4332009,
  "tags": {
    "historic": "monument",
    "name": "Никола Карев"
  }
},
{
  "type": "node",
  "id": 4409589398,
  "lat": 41.8370625,
  "lon": 20.8837497,
  "tags": {
    "amenity": "place_of_worship",
    "building": "mosque",
    "denomination": "sunni",
    "name": "џа́мија",
    "religion": "muslim"
  }
},
{
  "type": "node",
  "id": 4418246291,
  "lat": 41.9100745,
  "lon": 20.9107938,
  "tags": {
    "amenity": "place_of_worship",
    "name": "Џамиа",
    "name:en": "Mosque",
    "name:mk": "Џамиа",
    "name:sq": "Xhamia"
  }
},
{
  "type": "node",
  "id": 4422047250,
  "lat": 41.1100998,
  "lon": 21.0214473,
  "tags": {
    "amenity": "place_of_worship",
    "denomination": "ортходоџ",
    "name": "Св. Никола",
    "religion": "christian"
  }
},
{
  "type": "node",
  "id": 4477202789,
  "lat": 42.0016804,
  "lon": 21.4283664,
  "tags": {
    "historic": "monument",
    "name": "Вера Јоциќ",
    "name:en": "Vera Jocik",
    "name:mk": "Вера Јоциќ"
  }
},
{
  "type": "node",
  "id": 4485913838,
  "lat": 41.1291432,
  "lon": 20.8400056,
  "tags": {
    "amenity": "place_of_worship",
    "int_name": "Saint Petka Monastery",
    "name": "Манастир Света Петка",
    "name:en": "Saint Petka Monastery"
  }
},
{
  "type": "node",
  "id": 4489443488,
  "lat": 41.5227668,
  "lon": 20.5275107,
  "tags": {
    "historic": "monument"
  }
},
{
  "type": "node",
  "id": 4502468090,
  "lat": 41.9670617,
  "lon": 20.9340638,
  "tags": {
    "amenity": "place_of_worship",
    "name": "Dzamija",
    "name:en": "Mosque",
    "name:mk": "Dzamija",
    "name:sq": "Xhamija"
  }
},
{
  "type": "node",
  "id": 4502469593,
  "lat": 41.9446785,
  "lon": 20.9249127,
  "tags": {
    "amenity": "place_of_worship",
    "name": "Dzamija",
    "name:en": "Mosque",
    "name:mk": "Dzamija",
    "name:sq": "Xhamija",
    "religion": "muslim"
  }
},
{
  "type": "node",
  "id": 4502469594,
  "lat": 41.9486426,
  "lon": 20.9285306,
  "tags": {
    "amenity": "place_of_worship",
    "name": "Dzamija",
    "name:en": "Mosque",
    "name:mk": "Dzamija",
    "name:sq": "Xhamija"
  }
},
{
  "type": "node",
  "id": 4502488689,
  "lat": 41.9237954,
  "lon": 20.9163298,
  "tags": {
    "amenity": "place_of_worship",
    "name": "Dzamija",
    "name:en": "Mosque",
    "name:mk": "Џамија",
    "name:sq": "Xhamia"
  }
},
{
  "type": "node",
  "id": 4551996521,
  "lat": 41.7031608,
  "lon": 20.7595909,
  "tags": {
    "amenity": "place_of_worship",
    "denomination": "orthodox",
    "name": "Ss. Cyril and Methodius – Црква Св.Кирил и Методиј",
    "religion": "christian"
  }
},
{
  "type": "node",
  "id": 4575831104,
  "lat": 41.3455416,
  "lon": 21.5532375,
  "tags": {
    "access": "yes",
    "historic": "monument",
    "monument": "statue",
    "name": "Марко Мрњавчевиќ",
    "name:en": "Marko Mrnjavchevikj",
    "name:mk": "Марко Мрњавчевиќ"
  }
},
{
  "type": "node",
  "id": 4575841428,
  "lat": 41.3450704,
  "lon": 21.5505634,
  "tags": {
    "historic": "monument",
    "name": "Круме Кепески"
  }
},
{
  "type": "node",
  "id": 4575841429,
  "lat": 41.3451329,
  "lon": 21.5506707,
  "tags": {
    "historic": "monument",
    "name": "Блаже Конески"
  }
},
{
  "type": "node",
  "id": 4575841430,
  "lat": 41.3451792,
  "lon": 21.5505581,
  "tags": {
    "historic": "monument",
    "name": "Марко Цепенков"
  }
},
{
  "type": "node",
  "id": 4674392389,
  "lat": 41.9540687,
  "lon": 21.2889878,
  "tags": {
    "amenity": "place_of_worship",
    "denomination": "macedonian_orthodox",
    "designation": "Monastery",
    "name": "Sveti Spas",
    "religion": "christian"
  }
},
{
  "type": "node",
  "id": 4745413067,
  "lat": 41.2788101,
  "lon": 20.7836677,
  "tags": {
    "historic": "memorial",
    "name": "Ботун"
  }
},
{
  "type": "node",
  "id": 4751492691,
  "lat": 41.1582630,
  "lon": 22.5006786,
  "tags": {
    "artist:wikidata": "Q1090724",
    "historic": "monument",
    "name": "Споменик на слободата",
    "name:en": "Monument of freedom",
    "ruins": "yes",
    "start_date": "1969"
  }
},
{
  "type": "node",
  "id": 4793132553,
  "lat": 41.4684254,
  "lon": 22.0833364,
  "tags": {
    "amenity": "place_of_worship",
    "religion": "christian"
  }
},
{
  "type": "node",
  "id": 4817137480,
  "lat": 41.4300424,
  "lon": 22.6409328,
  "tags": {
    "amenity": "place_of_worship",
    "denomination": "orthodox",
    "description": "Таму се наоѓа копија на чудотворна икона на Пресвета Богородица „Брзопослушница“",
    "name": "Манастир Св. 15 Маченици",
    "religion": "christian"
  }
},
{
  "type": "node",
  "id": 4842170821,
  "lat": 41.1249175,
  "lon": 20.8534916,
  "tags": {
    "amenity": "place_of_worship",
    "name": "Св. Никола",
    "name:en": "Saint Nicholas Church",
    "name:fr": "Eglise Saint Nicolas"
  }
},
{
  "type": "node",
  "id": 4895300521,
  "lat": 42.0048505,
  "lon": 21.4368762,
  "tags": {
    "historic": "monument",
    "name:en": "Haji Balaban Masjid",
    "name:tr": "Hacı Balaban Camii"
  }
},
{
  "type": "node",
  "id": 4895300621,
  "lat": 42.0054870,
  "lon": 21.4431109,
  "tags": {
    "amenity": "place_of_worship",
    "name:tr": "RUFAİ TEKKESİ"
  }
},
{
  "type": "node",
  "id": 4907386415,
  "lat": 41.3738524,
  "lon": 21.5025867,
  "tags": {
    "historic": "monument",
    "name": "Борецот"
  }
},
{
  "type": "node",
  "id": 4907494222,
  "lat": 41.3983937,
  "lon": 21.5642947,
  "tags": {
    "historic": "monument"
  }
},
{
  "type": "node",
  "id": 4972835907,
  "lat": 41.1736526,
  "lon": 20.6783749,
  "tags": {
    "historic": "monument",
    "name": "Сергеј Есенин"
  }
},
{
  "type": "node",
  "id": 5020280587,
  "lat": 41.9497210,
  "lon": 21.2914987,
  "tags": {
    "amenity": "place_of_worship",
    "denomination": "macedonian_orthodox",
    "designation": "Monastery",
    "name": "Sveta Nedela",
    "religion": "christian"
  }
},
{
  "type": "node",
  "id": 5055432425,
  "lat": 42.0769461,
  "lon": 22.1823517,
  "tags": {
    "historic": "monument",
    "int_name": "Emin-beg Kula",
    "name": "Емин-бегова кула",
    "name:en": "Emin Bey Tower",
    "tourism": "attraction"
  }
},
{
  "type": "node",
  "id": 5055432426,
  "lat": 42.0768838,
  "lon": 22.1826261,
  "tags": {
    "historic": "monument",
    "int_name": "Ksteva Kula",
    "name": "Крстева кула",
    "name:en": "Krste's Tower",
    "name:mk": "Крстева кула"
  }
},
{
  "type": "node",
  "id": 5055444424,
  "lat": 41.1949939,
  "lon": 22.6878453,
  "tags": {
    "historic": "monument",
    "name": "Споменик „Солунски фронт“ од I светска војна",
    "name:en": "World War I Salonica Front memorial",
    "name:nl": "World War I Salonica Front monument"
  }
},
{
  "type": "node",
  "id": 5055444426,
  "lat": 42.0768628,
  "lon": 22.1822635,
  "tags": {
    "historic": "monument",
    "int_name": "Hadži Kostova Kula",
    "name": "Хаџикостова кула",
    "name:en": "Hadji Kostov Tower"
  }
},
{
  "type": "node",
  "id": 5055455123,
  "lat": 42.0792053,
  "lon": 22.1818109,
  "tags": {
    "historic": "monument",
    "int_name": "Saat Kula",
    "name": "Саат-кула",
    "name:en": "Clock Tower"
  }
},
{
  "type": "node",
  "id": 5055455125,
  "lat": 42.0788289,
  "lon": 22.1809805,
  "tags": {
    "historic": "monument",
    "int_name": "Zlatkovičeva Kula",
    "name": "Златковичева кула",
    "name:en": "Zlatkovich Tower"
  }
},
{
  "type": "node",
  "id": 5055455126,
  "lat": 42.0786957,
  "lon": 22.1794714,
  "tags": {
    "historic": "monument",
    "int_name": "Simiḱeva Kula",
    "name": "Симиќева кула",
    "name:en": "Simikj Tower"
  }
},
{
  "type": "node",
  "id": 5098505521,
  "lat": 41.4409796,
  "lon": 22.6796979,
  "tags": {
    "historic": "monument",
    "name": "Струмица-Кристал-64"
  }
},
{
  "type": "node",
  "id": 5115421420,
  "lat": 41.1172494,
  "lon": 20.7948455,
  "tags": {
    "amenity": "place_of_worship",
    "denomination": "orthodox",
    "description": "Macedonian Eastern Orthodox Church",
    "int_name": "St. Michael the Archangel",
    "name": "Св. Архангел Михаил",
    "religion": "christian"
  }
},
{
  "type": "node",
  "id": 5311578447,
  "lat": 42.1394412,
  "lon": 21.1020050,
  "tags": {
    "amenity": "place_of_worship",
    "religion": "christian"
  }
},
{
  "type": "node",
  "id": 5317046322,
  "lat": 42.0229063,
  "lon": 21.4188415,
  "tags": {
    "historic": "memorial"
  }
},
{
  "type": "node",
  "id": 5320063221,
  "lat": 41.1142097,
  "lon": 20.7934484,
  "tags": {
    "historic": "memorial"
  }
},
{
  "type": "node",
  "id": 5327301211,
  "lat": 41.9213327,
  "lon": 20.8993806,
  "tags": {
    "addr:city": "Раковец",
    "amenity": "place_of_worship",
    "religion": "muslim"
  }
},
{
  "type": "node",
  "id": 5327301348,
  "lat": 41.9252423,
  "lon": 20.9121426,
  "tags": {
    "addr:city": "Боговиње",
    "amenity": "place_of_worship",
    "religion": "muslim"
  }
},
{
  "type": "node",
  "id": 5327471601,
  "lat": 41.0067740,
  "lon": 21.3415263,
  "tags": {
    "amenity": "place_of_worship",
    "denomination": "orthodox",
    "historic": "yes",
    "name": "Св. Троица",
    "name:en": "St. Trinity",
    "name:pl": "Cerkiew św. Trójcy",
    "religion": "christian",
    "tourism": "attraction",
    "wikipedia": "mk:Св._Троица_(Битола)"
  }
},
{
  "type": "node",
  "id": 5405804948,
  "lat": 41.0881175,
  "lon": 20.8227937,
  "tags": {
    "addr:city": "Velestovo",
    "amenity": "place_of_worship",
    "denomination": "orthodox",
    "ele": "970",
    "name": "Свети Тројца Архиереи",
    "religion": "christian",
    "tourism": "attraction"
  }
},
{
  "type": "node",
  "id": 5405822023,
  "lat": 41.1161136,
  "lon": 20.8400708,
  "tags": {
    "amenity": "place_of_worship",
    "denomination": "orthodox",
    "name": "Свети Атанасиј Велики Архиепископ Александриски",
    "religion": "christian"
  }
},
{
  "type": "node",
  "id": 5469804185,
  "lat": 41.1827523,
  "lon": 20.7990502,
  "tags": {
    "addr:city": "Горно Лакочереј",
    "amenity": "place_of_worship",
    "denomination": "orthodox",
    "ele": "800",
    "name": "Црква „Свети Илија„",
    "name:en": "Church of St. Elijah",
    "religion": "christian"
  }
},
{
  "type": "node",
  "id": 5469827562,
  "lat": 41.1817025,
  "lon": 20.7932588,
  "tags": {
    "addr:city": "Село Горно Лакочереј",
    "amenity": "place_of_worship",
    "denomination": "orthodox",
    "ele": "880",
    "name": "Црква „Свети Спас“",
    "phone": "+389 77 899 580",
    "religion": "christian"
  }
},
{
  "type": "node",
  "id": 5541143272,
  "lat": 41.8845661,
  "lon": 22.5039935,
  "tags": {
    "historic": "memorial",
    "memorial": "yes",
    "name": "Теракота"
  }
},
{
  "type": "node",
  "id": 5551392390,
  "lat": 41.1745272,
  "lon": 20.6778868,
  "tags": {
    "historic": "memorial",
    "memorial": "bust",
    "name": "Никола Кукунешоски - Дунѓерски",
    "name:en": "Nikola Kukuneshoski - Dungjerski"
  }
},
{
  "type": "node",
  "id": 5551392391,
  "lat": 41.1747311,
  "lon": 20.6779485,
  "tags": {
    "historic": "memorial",
    "memorial": "bust",
    "name": "Крсте Јовановски"
  }
},
{
  "type": "node",
  "id": 5551392392,
  "lat": 41.1749451,
  "lon": 20.6779833,
  "tags": {
    "historic": "memorial",
    "memorial": "bust",
    "name": "Димче Кошаркоски"
  }
},
{
  "type": "node",
  "id": 5551410938,
  "lat": 41.1756537,
  "lon": 20.6782194,
  "tags": {
    "historic": "memorial",
    "memorial": "bust",
    "name": "Боро Шаин"
  }
},
{
  "type": "node",
  "id": 5551410939,
  "lat": 41.1755185,
  "lon": 20.6781791,
  "tags": {
    "historic": "memorial",
    "memorial": "bust",
    "name": "Јово Стефановски - Риле"
  }
},
{
  "type": "node",
  "id": 5551410940,
  "lat": 41.1753893,
  "lon": 20.6781416,
  "tags": {
    "historic": "memorial",
    "memorial": "bust",
    "name": "Разме Малески"
  }
},
{
  "type": "node",
  "id": 5551410941,
  "lat": 41.1752843,
  "lon": 20.6781067,
  "tags": {
    "historic": "memorial",
    "memorial": "bust",
    "name": "Петре Гончески - Гиле"
  }
},
{
  "type": "node",
  "id": 5601794412,
  "lat": 41.9389087,
  "lon": 21.6146788,
  "tags": {
    "amenity": "place_of_worship",
    "denomination": "orthodox",
    "name": "Св. Ѓорѓија",
    "religion": "christian"
  }
},
{
  "type": "node",
  "id": 5601885725,
  "lat": 41.0000561,
  "lon": 20.8036513,
  "tags": {
    "historic": "memorial"
  }
},
{
  "type": "node",
  "id": 5642350720,
  "lat": 41.1732572,
  "lon": 22.7294274,
  "tags": {
    "amenity": "place_of_worship",
    "denomination": "orthodox",
    "religion": "christian"
  }
},
{
  "type": "node",
  "id": 5699016423,
  "lat": 41.0240503,
  "lon": 21.0506131,
  "tags": {
    "name": "Eтнолошки музеј",
    "name:en": "Ethnographic museum",
    "tourism": "museum"
  }
},
{
  "type": "node",
  "id": 5711419372,
  "lat": 41.9963577,
  "lon": 21.4323793,
  "tags": {
    "artwork_type": "statue",
    "historic": "memorial",
    "memorial": "statue",
    "name": "Гоце Делчев",
    "name:de": "Goze Deltschew",
    "name:en": "Goce Delchev",
    "name:fr": "Gotsé Deltchev",
    "name:mk": "Гоце Делчев",
    "name:sr": "Гоце Делчев",
    "tourism": "artwork"
  }
},
{
  "type": "node",
  "id": 5722266446,
  "lat": 42.1003011,
  "lon": 21.9665342,
  "tags": {
    "historic": "archaeological_site",
    "historic:civilization": "ancient_roman",
    "name": "Konjuh"
  }
},
{
  "type": "node",
  "id": 5724919827,
  "lat": 42.0950967,
  "lon": 21.9657381,
  "tags": {
    "amenity": "place_of_worship"
  }
},
{
  "type": "node",
  "id": 5724937829,
  "lat": 42.0955359,
  "lon": 21.9603383,
  "tags": {
    "amenity": "place_of_worship",
    "historic:period": "medieval",
    "religion": "christian"
  }
},
{
  "type": "node",
  "id": 5725072268,
  "lat": 41.7376603,
  "lon": 22.1863555,
  "tags": {
    "historic": "archaeological_site",
    "historic:civilization": "medieval"
  }
},
{
  "type": "node",
  "id": 5725139643,
  "lat": 41.7995125,
  "lon": 22.2898290,
  "tags": {
    "historic": "archaeological_site",
    "historic:civilization": "ancient_roman",
    "name": "Bargala"
  }
},
{
  "type": "node",
  "id": 5725139652,
  "lat": 41.7973143,
  "lon": 22.2907471,
  "tags": {
    "amenity": "place_of_worship",
    "religion": "christian"
  }
},
{
  "type": "node",
  "id": 5728312945,
  "lat": 41.3825161,
  "lon": 22.7542141,
  "tags": {
    "historic": "archaeological_site",
    "name": "Roman Bathhouse",
    "tourism": "attraction"
  }
},
{
  "type": "node",
  "id": 5729742420,
  "lat": 41.7779241,
  "lon": 22.8625358,
  "tags": {
    "historic": "archaeological_site"
  }
},
{
  "type": "node",
  "id": 5729916159,
  "lat": 41.8484714,
  "lon": 22.4180157,
  "tags": {
    "historic": "archaeological_site"
  }
},
{
  "type": "node",
  "id": 5812672954,
  "lat": 42.0169571,
  "lon": 21.4434502,
  "tags": {
    "historic": "monument",
    "name": "Doma",
    "name:tr": "Evim"
  }
},
{
  "type": "node",
  "id": 5833918548,
  "lat": 41.5939237,
  "lon": 20.6527230,
  "tags": {
    "name": "Museum of Galichnik's cultural heritage",
    "tourism": "museum"
  }
},
{
  "type": "node",
  "id": 5838570330,
  "lat": 41.5198288,
  "lon": 20.5255985,
  "tags": {
    "amenity": "place_of_worship",
    "religion": "muslim"
  }
},
{
  "type": "node",
  "id": 5841674945,
  "lat": 41.9963717,
  "lon": 21.4339472,
  "tags": {
    "historic": "memorial",
    "memorial": "statue",
    "name:en": "The Bridge of Civilizations in Macedonia"
  }
},
{
  "type": "node",
  "id": 5841719696,
  "lat": 42.0011065,
  "lon": 21.4344426,
  "tags": {
    "historic": "memorial",
    "memorial": "cannon"
  }
},
{
  "type": "node",
  "id": 5846663486,
  "lat": 41.0239386,
  "lon": 20.8255665,
  "tags": {
    "historic": "memorial",
    "name:en": "chapel",
    "name:pl": "kaplica"
  }
},
{
  "type": "node",
  "id": 5901740885,
  "lat": 41.9952759,
  "lon": 21.4319995,
  "tags": {
    "addr:city": "Skopje",
    "addr:postcode": "1000",
    "historic": "memorial",
    "name": "Спомен плоча на Мајка Тереза",
    "name:de": "Geburtsort von Mutter Teresa",
    "name:en": "Mother Teresa Old House Place",
    "source": "survey"
  }
},
{
  "type": "node",
  "id": 5926438456,
  "lat": 41.1057278,
  "lon": 20.8078335,
  "tags": {
    "historic": "memorial",
    "int_name": "Aard den Dolaard",
    "memorial": "plaque",
    "name": "Ард ден Долард",
    "name:en": "Aard den Dolaard",
    "name:nl": "Aard den Dolaard"
  }
},
{
  "type": "node",
  "id": 5931017315,
  "lat": 41.5578401,
  "lon": 22.2870123,
  "tags": {
    "amenity": "place_of_worship",
    "denomination": "orthodox",
    "name": "Св. Ѓорѓи",
    "religion": "christian"
  }
},
{
  "type": "node",
  "id": 6020682284,
  "lat": 42.0854161,
  "lon": 21.4890684,
  "tags": {
    "amenity": "place_of_worship",
    "denomination": "orthodox",
    "name": "Sveti Spas",
    "religion": "christian"
  }
},
{
  "type": "node",
  "id": 6054035627,
  "lat": 41.9953188,
  "lon": 21.4274744,
  "tags": {
    "historic": "memorial"
  }
},
{
  "type": "node",
  "id": 6054036213,
  "lat": 41.9996011,
  "lon": 21.4195079,
  "tags": {
    "historic": "memorial"
  }
},
{
  "type": "node",
  "id": 6054048485,
  "lat": 41.9957136,
  "lon": 21.4306041,
  "tags": {
    "historic": "memorial",
    "int_name": "Metodija Andonov - Čento Momument",
    "memorial": "statue",
    "name": "Методија Андонов - Ченто"
  }
},
{
  "type": "node",
  "id": 6054048885,
  "lat": 42.0011364,
  "lon": 21.4367075,
  "tags": {
    "amenity": "place_of_worship"
  }
},
{
  "type": "node",
  "id": 6054049798,
  "lat": 42.0072121,
  "lon": 21.3655391,
  "tags": {
    "historic": "memorial"
  }
},
{
  "type": "node",
  "id": 6054049805,
  "lat": 41.9959384,
  "lon": 21.4331831,
  "tags": {
    "historic": "memorial",
    "memorial": "statue"
  }
},
{
  "type": "node",
  "id": 6079524190,
  "lat": 42.0218940,
  "lon": 22.5882451,
  "tags": {
    "amenity": "place_of_worship",
    "denomination": "orthodox",
    "name": "Assumption of Mary",
    "religion": "christian",
    "service_times": "Sunday"
  }
},
{
  "type": "node",
  "id": 6136130985,
  "lat": 41.9974433,
  "lon": 20.9681527,
  "tags": {
    "historic": "monument",
    "name": "terminal mitnitsa tetovo"
  }
},
{
  "type": "node",
  "id": 6136130988,
  "lat": 41.9885405,
  "lon": 21.2926787,
  "tags": {
    "historic": "monument",
    "name": "patarina-160"
  }
},
{
  "type": "node",
  "id": 6274218923,
  "lat": 41.7151560,
  "lon": 21.7874159,
  "tags": {
    "amenity": "place_of_worship",
    "name": "Свети Пантелејмон",
    "religion": "christian"
  }
},
{
  "type": "node",
  "id": 6275187296,
  "lat": 42.0386390,
  "lon": 21.4470962,
  "tags": {
    "amenity": "place_of_worship",
    "denomination": "orthodox",
    "name": "Свети Јован Крстител",
    "religion": "christian"
  }
},
{
  "type": "node",
  "id": 6327921348,
  "lat": 41.3390523,
  "lon": 22.2545875,
  "tags": {
    "amenity": "place_of_worship",
    "denomination": "orthodox",
    "name": "Св. Ѓорѓија",
    "name:en": "St. George",
    "religion": "christian"
  }
},
{
  "type": "node",
  "id": 6330116899,
  "lat": 40.9167284,
  "lon": 21.5278294,
  "tags": {
    "amenity": "place_of_worship",
    "religion": "christian"
  }
},
{
  "type": "node",
  "id": 6348392216,
  "lat": 41.7361643,
  "lon": 22.2020987,
  "tags": {
    "historic": "memorial"
  }
},
{
  "type": "node",
  "id": 6348392225,
  "lat": 41.7384620,
  "lon": 22.1983434,
  "tags": {
    "historic": "memorial"
  }
},
{
  "type": "node",
  "id": 6348392226,
  "lat": 41.7384601,
  "lon": 22.1984235,
  "tags": {
    "historic": "memorial"
  }
},
{
  "type": "node",
  "id": 6348392227,
  "lat": 41.7361778,
  "lon": 22.2019610,
  "tags": {
    "historic": "memorial"
  }
},
{
  "type": "node",
  "id": 6348392228,
  "lat": 41.7362745,
  "lon": 22.2015065,
  "tags": {
    "historic": "memorial"
  }
},
{
  "type": "node",
  "id": 6348392229,
  "lat": 41.7363007,
  "lon": 22.2013440,
  "tags": {
    "historic": "memorial"
  }
},
{
  "type": "node",
  "id": 6349377665,
  "lat": 41.7364635,
  "lon": 22.1899861,
  "tags": {
    "historic": "monument"
  }
},
{
  "type": "node",
  "id": 6349721704,
  "lat": 41.7213441,
  "lon": 22.6569551,
  "tags": {
    "historic": "memorial",
    "inscription": "Малешевскиот (Малешки) народноослободителен одред бил територијална партизанска единица на НОВ и ПОМ. Формиран е во месноста Паруца, кота 1356 на пл. Плачковица и делувал од 25 август до ноември 1944. Одредот е формиран од 50 борци од Малешевијата. Ги нап",
    "memorial": "plaque",
    "name": "Споменик на Малешевскиот (Малешки) народноослободителен одред"
  }
},
{
  "type": "node",
  "id": 6418857588,
  "lat": 41.0043725,
  "lon": 20.9282003,
  "tags": {
    "access": "yes",
    "archaeological_site": "fortification",
    "ele": "1181",
    "historic": "archaeological_site",
    "historic:civilization": "byzantine",
    "int_name": "Kale",
    "name": "Кале",
    "name:en": "Kale",
    "name:mk": "Кале",
    "wikidata": "Q20569402",
    "wikipedia": "mk:Кале (Шурленци)"
  }
},
{
  "type": "node",
  "id": 6452648309,
  "lat": 41.3788494,
  "lon": 22.8142315,
  "tags": {
    "amenity": "place_of_worship",
    "religion": "christian"
  }
},
{
  "type": "node",
  "id": 6471416045,
  "lat": 41.9856377,
  "lon": 22.5905605,
  "tags": {
    "access": "yes",
    "alt_name": "Луковица",
    "alt_name:mk": "Lukovica",
    "archaeological_site": "fortification",
    "ele": "523",
    "historic": "archaeological_site",
    "historic:civilization": "ancient_roman",
    "int_name": "Kalata",
    "name": "Калата",
    "name:en": "Kalata",
    "name:mk": "Калата",
    "source": "survey",
    "source:ele": "https://ossp.katastar.gov.mk/OSSP/",
    "source:type": "http://www.promacedonia.org/im3/im_delchevo.htm",
    "start_date": "3rd century",
    "wikidata": "Q43276459",
    "wikipedia": "mk:Калата"
  }
},
{
  "type": "node",
  "id": 6496452597,
  "lat": 40.9142772,
  "lon": 20.9879202,
  "tags": {
    "alt_name": "Свети Никола",
    "amenity": "place_of_worship",
    "denomination": "orthodox",
    "int_name": "Sveti Nikola",
    "name": "Св. Никола",
    "name:en": "Saint Nicholas Church",
    "name:mk": "Св. Никола",
    "religion": "christian"
  }
},
{
  "type": "node",
  "id": 6497512448,
  "lat": 40.9389819,
  "lon": 20.9114422,
  "tags": {
    "amenity": "place_of_worship",
    "denomination": "orthodox",
    "name": "Св. Кирил и Методиј",
    "name:en": "Saint Cyril and Methodius Church",
    "name:mk": "Св. Кирил и Методиј",
    "religion": "christian"
  }
},
{
  "type": "node",
  "id": 6499470885,
  "lat": 41.5263923,
  "lon": 20.5259249,
  "tags": {
    "amenity": "place_of_worship",
    "name:en": "cami"
  }
},
{
  "type": "node",
  "id": 6501627685,
  "lat": 41.6120845,
  "lon": 20.6001722,
  "tags": {
    "amenity": "place_of_worship"
  }
},
{
  "type": "node",
  "id": 6535106716,
  "lat": 41.6952366,
  "lon": 21.6281720,
  "tags": {
    "access": "yes",
    "archaeological_site": "fortification",
    "ele": "840",
    "historic": "archaeological_site",
    "int_name": "Banjichko Kale",
    "name": "Бањичко Кале",
    "name:en": "Banjica Fortress",
    "wikidata": "Q61121392",
    "wikipedia": "mk:Бањичко Кале"
  }
},
{
  "type": "node",
  "id": 6563726510,
  "lat": 41.3747079,
  "lon": 20.7630424,
  "tags": {
    "historic": "monument",
    "inscription": "WWII",
    "name": "Mirče Acev Bataljon",
    "website": "https://en.m.wikipedia.org/wiki/People%27s_Liberation_Army_of_Macedonia"
  }
},
{
  "type": "node",
  "id": 6631161986,
  "lat": 41.2395882,
  "lon": 20.5896518,
  "tags": {
    "amenity": "place_of_worship",
    "name:en": "St Nicholas Church",
    "name:fr": "Église St Nicolas"
  }
},
{
  "type": "node",
  "id": 6649560685,
  "lat": 40.9488827,
  "lon": 20.7743745,
  "tags": {
    "amenity": "place_of_worship",
    "denomination": "orthodox",
    "name": "Св. Богородица Захумска",
    "religion": "christian"
  }
},
{
  "type": "node",
  "id": 6690599185,
  "lat": 42.2903563,
  "lon": 22.0423694,
  "tags": {
    "amenity": "place_of_worship",
    "denomination": "orthodox",
    "name": "Црква св. Jован",
    "religion": "christian"
  }
},
{
  "type": "node",
  "id": 6700534285,
  "lat": 41.7428453,
  "lon": 20.6743171,
  "tags": {
    "amenity": "place_of_worship",
    "denomination": "orthodox",
    "religion": "christian"
  }
},
{
  "type": "node",
  "id": 6700534286,
  "lat": 41.7442101,
  "lon": 20.6741391,
  "tags": {
    "amenity": "place_of_worship",
    "religion": "muslim"
  }
},
{
  "type": "node",
  "id": 6775798435,
  "lat": 41.5363785,
  "lon": 20.6936768,
  "tags": {
    "amenity": "place_of_worship",
    "denomination": "orthodox",
    "name": "Св. Ѓорѓи",
    "opening_hours": "sunday",
    "religion": "christian",
    "wikidata": "Q12293134",
    "wikipedia": "mk:Црква „Св. Ѓорѓи“ - Лазарополе"
  }
},
{
  "type": "node",
  "id": 6814236608,
  "lat": 42.0049027,
  "lon": 21.4368729,
  "tags": {
    "amenity": "place_of_worship",
    "name": "Haci Balaban 1440"
  }
},
{
  "type": "node",
  "id": 6814236614,
  "lat": 42.0038278,
  "lon": 21.4375316,
  "tags": {
    "amenity": "place_of_worship",
    "name": "Mosque"
  }
},
{
  "type": "node",
  "id": 6821158694,
  "lat": 41.9943288,
  "lon": 21.4307922,
  "tags": {
    "historic": "memorial",
    "name": "2 musicians and one dancing man"
  }
},
{
  "type": "node",
  "id": 6830542190,
  "lat": 41.6345497,
  "lon": 20.9142852,
  "tags": {
    "amenity": "place_of_worship",
    "name": "Mosque",
    "religion": "muslim"
  }
},
{
  "type": "node",
  "id": 6830542192,
  "lat": 41.5691074,
  "lon": 20.9568036,
  "tags": {
    "amenity": "place_of_worship",
    "name": "Mosque"
  }
},
{
  "type": "node",
  "id": 6830542387,
  "lat": 42.0013585,
  "lon": 21.4167475,
  "tags": {
    "amenity": "place_of_worship",
    "name": "Christijanski Zentar",
    "name:en": "Church",
    "religion": "christian"
  }
},
{
  "type": "node",
  "id": 6830542388,
  "lat": 41.9762590,
  "lon": 20.9558771,
  "tags": {
    "amenity": "place_of_worship",
    "name:en": "Mosque"
  }
},
{
  "type": "node",
  "id": 6830542487,
  "lat": 41.3236049,
  "lon": 20.7929425,
  "tags": {
    "amenity": "place_of_worship",
    "name": "Church"
  }
},
{
  "type": "node",
  "id": 6833101185,
  "lat": 41.1120953,
  "lon": 20.7956940,
  "tags": {
    "historic": "memorial",
    "material": "stone",
    "memorial": "stele",
    "name": "Коста Абраш"
  }
},
{
  "type": "node",
  "id": 6837039795,
  "lat": 41.1124032,
  "lon": 20.8071328,
  "tags": {
    "historic": "memorial",
    "name": "Henry Dunant"
  }
},
{
  "type": "node",
  "id": 6875520386,
  "lat": 41.4373198,
  "lon": 22.6353267,
  "tags": {
    "addr:housenumber": "4",
    "addr:postcode": "2400",
    "addr:street": "Загребска",
    "amenity": "place_of_worship",
    "name": "Евангелско Методистичка Црква",
    "name:en": "United Methodist Church",
    "website": "http://emc.mk/%D0%B7%D0%B0-%D0%BD%D0%B0%D1%81/"
  }
},
{
  "type": "node",
  "id": 6901630767,
  "lat": 41.2754595,
  "lon": 21.3684104,
  "tags": {
    "historic": "monument",
    "name": "Љубе Грујоски",
    "name:en": "Ljube Grujoski",
    "wikidata": "Q20562690"
  }
},
{
  "type": "node",
  "id": 6928597500,
  "lat": 42.0992419,
  "lon": 21.9628186,
  "tags": {
    "historic": "archaeological_site"
  }
},
{
  "type": "node",
  "id": 6950924979,
  "lat": 41.4470959,
  "lon": 20.5222545,
  "tags": {
    "amenity": "place_of_worship",
    "religion": "muslim"
  }
},
{
  "type": "node",
  "id": 6987611917,
  "lat": 41.9962134,
  "lon": 21.4291373,
  "tags": {
    "addr:housenumber": "10",
    "addr:street": "Максим Горки",
    "name:en": "Museum of illusions",
    "name:ru": "Музей иллюзий",
    "tourism": "museum"
  }
},
{
  "type": "node",
  "id": 7102244287,
  "lat": 41.9989569,
  "lon": 21.3865879,
  "tags": {
    "addr:housenumber": "94",
    "addr:postcode": "1000",
    "addr:street": "Војвода Васил Чакаларов",
    "email": "galerija.ra@gmail.com",
    "internet_access": "wlan",
    "name": "Galerija RA",
    "name:en": "Gallery RA",
    "name:hr": "Macedonian",
    "opening_hours": "Mo-Sa 10:00-20:00",
    "phone": "+389075435402",
    "tourism": "museum"
  }
},
{
  "type": "node",
  "id": 7124138432,
  "lat": 41.1857198,
  "lon": 22.7227512,
  "tags": {
    "access": "yes",
    "historic": "monument",
    "name": "Споменик на Дојрана"
  }
},
{
  "type": "node",
  "id": 7124138466,
  "lat": 41.1825947,
  "lon": 22.7233826,
  "tags": {
    "access": "yes",
    "historic": "monument",
    "name": "Чешма Света Петка"
  }
},
{
  "type": "node",
  "id": 7416200113,
  "lat": 41.6444402,
  "lon": 22.4565993,
  "tags": {
    "amenity": "place_of_worship",
    "denomination": "orthodox",
    "name": "Православна црква \"Свети Илија\"",
    "religion": "christian"
  }
},
{
  "type": "node",
  "id": 7416200115,
  "lat": 41.6431439,
  "lon": 22.4689196,
  "tags": {
    "amenity": "place_of_worship",
    "religion": "muslim"
  }
},
{
  "type": "node",
  "id": 7416200116,
  "lat": 41.6439354,
  "lon": 22.4635719,
  "tags": {
    "amenity": "place_of_worship",
    "religion": "muslim"
  }
},
{
  "type": "node",
  "id": 7473901313,
  "lat": 41.1850048,
  "lon": 20.7762352,
  "tags": {
    "historic": "memorial",
    "name": "AXX110 / RA-42390"
  }
},
{
  "type": "node",
  "id": 7473959214,
  "lat": 41.9779001,
  "lon": 21.6157628,
  "tags": {
    "historic": "memorial",
    "memorial": "aircraft",
    "name": "PMK301 / PH-KXL"
  }
},
{
  "type": "node",
  "id": 7475537800,
  "lat": 41.3724643,
  "lon": 21.5605466,
  "tags": {
    "historic": "memorial",
    "memorial": "war_memorial",
    "name": "Дабнички масакр",
    "name:en": "Masacre of Dabnica",
    "wikipedia": "mk:Дабнички масакр"
  }
},
{
  "type": "node",
  "id": 7504362426,
  "lat": 41.2064953,
  "lon": 21.6536957,
  "tags": {
    "access": "yes",
    "historic": "monument",
    "inscription": "1868-1904",
    "name": "Толе Паша",
    "name:en": "Tole Pasha",
    "tomb": "war_grave",
    "wikipedia": "mk:Толе_Паша"
  }
},
{
  "type": "node",
  "id": 7508523395,
  "lat": 42.0224160,
  "lon": 21.5476216,
  "tags": {
    "historic": "memorial",
    "memorial": "war_memorial",
    "name": "Ацо Ангеловски"
  }
},
{
  "type": "node",
  "id": 7508523396,
  "lat": 42.0225556,
  "lon": 21.5480468,
  "tags": {
    "historic": "memorial",
    "memorial": "war_memorial",
    "name": "Кирил Петрушевски"
  }
},
{
  "type": "node",
  "id": 7508523397,
  "lat": 42.0227044,
  "lon": 21.5486015,
  "tags": {
    "historic": "memorial",
    "memorial": "war_memorial",
    "name": "Ерол Готак"
  }
},
{
  "type": "node",
  "id": 7564103281,
  "lat": 41.9764851,
  "lon": 21.1660504,
  "tags": {
    "historic": "memorial",
    "memorial": "war_memorial",
    "name": "Нане Наумоски"
  }
},
{
  "type": "node",
  "id": 7564103282,
  "lat": 41.9778470,
  "lon": 21.1773385,
  "tags": {
    "historic": "memorial",
    "memorial": "war_memorial",
    "name": "Сашо Китаноски"
  }
},
{
  "type": "node",
  "id": 7564103283,
  "lat": 41.9775300,
  "lon": 21.1679024,
  "tags": {
    "historic": "memorial",
    "memorial": "war_memorial",
    "name": "Бранко Секулоски"
  }
},
{
  "type": "node",
  "id": 7564125585,
  "lat": 41.9781971,
  "lon": 21.1745241,
  "tags": {
    "historic": "memorial",
    "memorial": "war_memorial",
    "name": "Горан Миноски"
  }
},
{
  "type": "node",
  "id": 7564125586,
  "lat": 41.9778930,
  "lon": 21.1713626,
  "tags": {
    "historic": "memorial",
    "memorial": "war_memorial",
    "name": "Марко Деспотоски"
  }
},
{
  "type": "node",
  "id": 7564125587,
  "lat": 41.9767167,
  "lon": 21.1675604,
  "tags": {
    "historic": "memorial",
    "memorial": "war_memorial",
    "name": "Ердован Шабаноски"
  }
},
{
  "type": "node",
  "id": 7564125588,
  "lat": 41.9772958,
  "lon": 21.1694976,
  "tags": {
    "historic": "memorial",
    "memorial": "war_memorial",
    "name": "Љубе Грујоски"
  }
},
{
  "type": "node",
  "id": 7564125589,
  "lat": 41.9770406,
  "lon": 21.1717935,
  "tags": {
    "historic": "memorial",
    "memorial": "war_memorial",
    "name": "Дарко Велјаноски"
  }
},
{
  "type": "node",
  "id": 7564125590,
  "lat": 41.9767893,
  "lon": 21.1747438,
  "tags": {
    "historic": "memorial",
    "memorial": "war_memorial",
    "name": "Веби Рушитоски"
  }
},
{
  "type": "node",
  "id": 7564125591,
  "lat": 41.9770420,
  "lon": 21.1770879,
  "tags": {
    "historic": "memorial",
    "memorial": "war_memorial",
    "name": "Пеце Секулоски"
  }
},
{
  "type": "node",
  "id": 7623493347,
  "lat": 41.3575814,
  "lon": 21.6256855,
  "tags": {
    "historic": "memorial",
    "material": "marble",
    "memorial": "plaque",
    "name": "Карпалак"
  }
},
{
  "type": "node",
  "id": 7626158238,
  "lat": 41.4014262,
  "lon": 22.0284286,
  "tags": {
    "historic": "memorial",
    "inscription": "Смртта стана немоќна пред нашата младост исправена, пред очите наши загледани, уште тоа утро во иднината.",
    "material": "reinforced_concrete",
    "memorial": "war_memorial",
    "name": "Масакр во Ваташа",
    "name:en": "Vatasha Massacre",
    "wikidata": "Q12908460",
    "wikipedia": "mk:Масакр во Ваташа",
    "wikipedia:sr": "Масакр у Ваташи"
  }
},
{
  "type": "node",
  "id": 7668777840,
  "lat": 41.2504567,
  "lon": 21.2277167,
  "tags": {
    "historic": "monument"
  }
},
{
  "type": "node",
  "id": 7769292645,
  "lat": 41.9972086,
  "lon": 21.4333292,
  "tags": {
    "historic": "memorial",
    "image": "https://upload.wikimedia.org/wikipedia/commons/9/96/Karposh_memory_table_Skopje.JPG",
    "memorial": "plaque",
    "subject:wikidata": "Q2386486",
    "subject:wikipedia": "mk:Карпош"
  }
},
{
  "type": "node",
  "id": 7771043050,
  "lat": 41.4440296,
  "lon": 20.8736344,
  "tags": {
    "amenity": "place_of_worship",
    "religion": "christian"
  }
},
{
  "type": "node",
  "id": 7771077503,
  "lat": 41.4436592,
  "lon": 20.8721449,
  "tags": {
    "historic": "memorial",
    "material": "granite",
    "memorial": "war_memorial",
    "name": "Duko Tasev"
  }
},
{
  "type": "node",
  "id": 7796229745,
  "lat": 41.4831122,
  "lon": 20.9229426,
  "tags": {
    "historic": "monument",
    "name": "Гоце Делчев"
  }
},
{
  "type": "node",
  "id": 7796229746,
  "lat": 41.4835750,
  "lon": 20.9222623,
  "tags": {
    "historic": "monument",
    "name": "Христо Узунов",
    "name:en": "Hristo Uzunov"
  }
},
{
  "type": "node",
  "id": 7817723542,
  "lat": 41.2693524,
  "lon": 21.1933224,
  "tags": {
    "historic": "memorial",
    "memorial": "war_memorial"
  }
},
{
  "type": "node",
  "id": 7833094677,
  "lat": 41.8646892,
  "lon": 21.9420620,
  "tags": {
    "historic": "monument",
    "name": "Споменик Св. Никола",
    "name:en": "Monument of St. Nicholas"
  }
},
{
  "type": "node",
  "id": 7833095397,
  "lat": 41.8644645,
  "lon": 21.9410121,
  "tags": {
    "historic": "monument",
    "name": "Споменик „Лазар Колишевски“"
  }
},
{
  "type": "node",
  "id": 7836134125,
  "lat": 41.8627557,
  "lon": 21.9386585,
  "tags": {
    "historic": "memorial",
    "name": "Св. Илија"
  }
},
{
  "type": "node",
  "id": 7839189326,
  "lat": 41.2040210,
  "lon": 22.5764136,
  "tags": {
    "amenity": "place_of_worship",
    "religion": "christian"
  }
},
{
  "type": "node",
  "id": 7839189335,
  "lat": 41.2014181,
  "lon": 22.5777874,
  "tags": {
    "amenity": "place_of_worship",
    "religion": "christian"
  }
},
{
  "type": "node",
  "id": 7855555417,
  "lat": 41.9029349,
  "lon": 21.8493009,
  "tags": {
    "amenity": "place_of_worship",
    "religion": "christian"
  }
},
{
  "type": "node",
  "id": 7947878810,
  "lat": 41.9156602,
  "lon": 22.4127780,
  "tags": {
    "access": "yes",
    "historic": "monument",
    "name": "Споменик на Никола Карев",
    "name:en": "Monument to Nikola Karev"
  }
},
{
  "type": "node",
  "id": 7950390467,
  "lat": 41.2101316,
  "lon": 20.5873191,
  "tags": {
    "amenity": "place_of_worship",
    "building": "yes",
    "denomination": "orthodox",
    "name": "Св. Спас",
    "name:en": "Holy Salvation",
    "natural": "cave",
    "religion": "christian"
  }
},
{
  "type": "node",
  "id": 8048135011,
  "lat": 41.3464944,
  "lon": 21.5629735,
  "tags": {
    "historic": "memorial",
    "memorial": "war_memorial",
    "name": "Кире Гаврилоски-Јане / Круме Волнароски-Коља",
    "name:en": "Kire Gavriloski-Jane / Krume Volnaroski-Kolja"
  }
},
{
  "type": "node",
  "id": 8063563409,
  "lat": 41.3421058,
  "lon": 21.5572532,
  "tags": {
    "historic": "memorial",
    "memorial": "plaque",
    "name": "Александар Македонски",
    "name:en": "Alexander The Great"
  }
},
{
  "type": "node",
  "id": 8148917180,
  "lat": 40.9507516,
  "lon": 21.5623260,
  "tags": {
    "historic": "monument"
  }
},
{
  "type": "node",
  "id": 8176930570,
  "lat": 41.3675691,
  "lon": 21.6538376,
  "tags": {
    "historic": "monument"
  }
},
{
  "type": "node",
  "id": 8193704891,
  "lat": 41.3761727,
  "lon": 21.2464617,
  "tags": {
    "historic": "memorial",
    "memorial": "plaque",
    "name": "Мирослав Јоксимовиќ",
    "name:en": "Miroslav Joksimovikj",
    "name:mk": "Мирослав Јоксимовиќ"
  }
},
{
  "type": "node",
  "id": 8245486495,
  "lat": 41.3747282,
  "lon": 21.2375283,
  "tags": {
    "historic": "memorial",
    "memorial": "plaque"
  }
},
{
  "type": "node",
  "id": 8279921462,
  "lat": 41.3653786,
  "lon": 21.2488407,
  "tags": {
    "historic": "monument",
    "name": "Кица Петрески",
    "name:en": "Kica Petreski"
  }
},
{
  "type": "node",
  "id": 8301080099,
  "lat": 41.3563252,
  "lon": 21.7710681,
  "tags": {
    "historic": "monument"
  }
},
{
  "type": "node",
  "id": 8358854928,
  "lat": 41.1830133,
  "lon": 21.8251757,
  "tags": {
    "historic": "memorial",
    "memorial": "war_memorial"
  }
},
{
  "type": "node",
  "id": 8402562316,
  "lat": 41.8668125,
  "lon": 21.6650899,
  "tags": {
    "historic": "monument",
    "name": "VAM-304"
  }
},
{
  "type": "node",
  "id": 8402601134,
  "lat": 41.4498577,
  "lon": 22.6491133,
  "tags": {
    "historic": "monument",
    "name": "МАР-7712"
  }
},
{
  "type": "node",
  "id": 8412381211,
  "lat": 41.3660450,
  "lon": 20.6489384,
  "tags": {
    "historic": "memorial",
    "name": "1. Бригада",
    "name:en": "1st Brigade",
    "name:mk": "1. Бригада",
    "source": "Mapbox",
    "wikidata": "Q982906",
    "wikipedia": "mk:Прва македонска ударна бригада"
  }
},
{
  "type": "node",
  "id": 8433354043,
  "lat": 41.9998632,
  "lon": 21.4292436,
  "tags": {
    "access": "yes",
    "historic": "monument",
    "name": "Ослободителите на Скопје",
    "name:en": "Monument to the Liberators of Skopje"
  }
},
{
  "type": "node",
  "id": 8484052150,
  "lat": 41.3702007,
  "lon": 21.6788001,
  "tags": {
    "historic": "memorial",
    "material": "granite",
    "memorial": "war_memorial"
  }
},
{
  "type": "node",
  "id": 8534237588,
  "lat": 41.3435127,
  "lon": 21.5549177,
  "tags": {
    "historic": "memorial",
    "inscription": "Да се сетиме на тие денови, денови на отпор и гордост, денови на борба и слобода!\n\nСеќавање на штрајкот на средношколската младина против бугарскиот фашистички окупатор на 8. Декември 1941 година.",
    "memorial": "plaque",
    "name": "08.12.1941"
  }
},
{
  "type": "node",
  "id": 8540573533,
  "lat": 41.0221088,
  "lon": 21.3313534,
  "tags": {
    "historic": "memorial",
    "memorial": "war_memorial"
  }
},
{
  "type": "node",
  "id": 8641682658,
  "lat": 41.2551396,
  "lon": 22.0327107,
  "tags": {
    "historic": "monument"
  }
},
{
  "type": "node",
  "id": 8677386085,
  "lat": 42.0673767,
  "lon": 20.9185104,
  "tags": {
    "historic": "monument",
    "name": "Вејце"
  }
},
{
  "type": "node",
  "id": 8685631871,
  "lat": 42.0346800,
  "lon": 22.3544954,
  "tags": {
    "historic": "memorial",
    "inscription": "Во борбата со бугарскиот фашистички окупатор во оваа месност на 11 јуни 1944 г. загина Вера Теодосиева Трајковска Которка (Родена 1925 г. во Куманово), борец на третата македонска ударна бригада. Партиско-политички работник на батаљон.\n4 Јули 1978 год.",
    "material": "reinforced_concrete",
    "memorial": "war_memorial"
  }
},
{
  "type": "node",
  "id": 8734384518,
  "lat": 41.3175299,
  "lon": 22.5856226,
  "tags": {
    "historic": "memorial"
  }
},
{
  "type": "node",
  "id": 8842731717,
  "lat": 41.9005865,
  "lon": 21.6105665,
  "tags": {
    "amenity": "place_of_worship",
    "name:en": "Orthodox church"
  }
},
{
  "type": "node",
  "id": 8850712742,
  "lat": 41.0264228,
  "lon": 21.2413843,
  "tags": {
    "amenity": "place_of_worship",
    "denomination": "orthodox",
    "name": "Свети Атанас",
    "name:en": "Saint Athanasius",
    "religion": "christian"
  }
},
{
  "type": "node",
  "id": 8850780299,
  "lat": 41.0207827,
  "lon": 21.2865681,
  "tags": {
    "amenity": "place_of_worship",
    "denomination": "orthodox",
    "name": "Свети Спас",
    "name:en": "Sveti Spas",
    "religion": "christian"
  }
},
{
  "type": "node",
  "id": 8850780300,
  "lat": 41.0224151,
  "lon": 21.2840092,
  "tags": {
    "amenity": "place_of_worship",
    "denomination": "orthodox",
    "name": "Свети Димитриј",
    "name:en": "Saint Dimitrij",
    "religion": "christian"
  }
},
{
  "type": "node",
  "id": 8850804720,
  "lat": 41.0274848,
  "lon": 21.1120413,
  "tags": {
    "amenity": "place_of_worship",
    "denomination": "orthodox",
    "name": "Света Ана",
    "name:en": "Saint Ana",
    "religion": "christian"
  }
},
{
  "type": "node",
  "id": 8880547039,
  "lat": 41.9998618,
  "lon": 21.4485415,
  "tags": {
    "historic": "monument",
    "name": "Генерал Михаило Апостолски"
  }
},
{
  "type": "node",
  "id": 8883349543,
  "lat": 41.9988251,
  "lon": 21.4506665,
  "tags": {
    "historic": "memorial",
    "int_name": "General Mihajlo Apostolski",
    "memorial": "statue",
    "name": "Генерал Михајло Апостолски",
    "name:mk": "Генерал Михајло Апостолски"
  }
},
{
  "type": "node",
  "id": 8883349544,
  "lat": 41.9960184,
  "lon": 21.4412009,
  "tags": {
    "historic": "monument",
    "name": "Krste Petkov Misirkov",
    "name:mk": "Крсте Петков Мисирков"
  }
},
{
  "type": "node",
  "id": 8883349545,
  "lat": 41.9960802,
  "lon": 21.4408764,
  "tags": {
    "historic": "monument",
    "name": "Blaže Koneski",
    "name:mk": "Блаже Конески"
  }
},
{
  "type": "node",
  "id": 8901338318,
  "lat": 41.6560282,
  "lon": 21.0216359,
  "tags": {
    "historic": "memorial",
    "name": "Sultana"
  }
},
{
  "type": "node",
  "id": 8901338319,
  "lat": 41.7192252,
  "lon": 20.8817320,
  "tags": {
    "historic": "memorial",
    "name": "Xhemë Hasa"
  }
},
{
  "type": "node",
  "id": 8901349094,
  "lat": 41.5964956,
  "lon": 20.9510739,
  "tags": {
    "historic": "memorial",
    "name": "Albanian Mother"
  }
},
{
  "type": "node",
  "id": 8913095085,
  "lat": 41.0171332,
  "lon": 21.2839588,
  "tags": {
    "amenity": "place_of_worship",
    "denomination": "orthodox",
    "name": "Св. Петка",
    "name:en": "St. Paraskeva",
    "name:mk": "Св. Петка",
    "religion": "christian"
  }
},
{
  "type": "node",
  "id": 8914478017,
  "lat": 41.3961543,
  "lon": 22.6078358,
  "tags": {
    "historic": "memorial"
  }
},
{
  "type": "node",
  "id": 8914478119,
  "lat": 41.3184030,
  "lon": 22.5614707,
  "tags": {
    "amenity": "place_of_worship"
  }
},
{
  "type": "node",
  "id": 8914478317,
  "lat": 41.3183647,
  "lon": 22.5609249,
  "tags": {
    "historic": "memorial"
  }
},
{
  "type": "node",
  "id": 8916677021,
  "lat": 41.0102076,
  "lon": 21.2501680,
  "tags": {
    "amenity": "place_of_worship",
    "denomination": "orthodox",
    "name": "Св. Петка",
    "name:en": "St. Paraskeva",
    "name:mk": "Св. Петка",
    "religion": "christian"
  }
},
{
  "type": "node",
  "id": 8951219184,
  "lat": 41.1119818,
  "lon": 20.7993330,
  "tags": {
    "access": "yes",
    "historic": "monument",
    "name": "Фаќач на чесниот крст",
    "name:mk": "Фаќач на чесниот крст"
  }
},
{
  "type": "node",
  "id": 8951302848,
  "lat": 41.1110018,
  "lon": 20.7889594,
  "tags": {
    "amenity": "place_of_worship",
    "name": "Црква Рождество на Пресвета Богородица и Света Петка",
    "religion": "christian",
    "start_date": "1998",
    "wikimedia_commons": "File:Sv. Bogorodica pod Kaneo.JPG"
  }
},
{
  "type": "node",
  "id": 9026624343,
  "lat": 41.9945304,
  "lon": 21.4326511,
  "tags": {
    "historic": "monument",
    "name": "Павел Шатев",
    "name:en": "Pavel Šatev"
  }
},
{
  "type": "node",
  "id": 9078062189,
  "lat": 41.9937260,
  "lon": 21.4332709,
  "tags": {
    "historic": "memorial",
    "inscription": "Невена Николова Георгиева-Дуња (25 јули 1925 во Скопје — 16 декември 1942 во Нежилово) — македонска комунистка, припадничка на младинското, синдикалното и работничкото движење меѓу двете светски војни, учесник во НОВ од 1941 година. Со своите 16 години би",
    "memorial": "statue",
    "name": "Невена Георгиева-Дуња"
  }
},
{
  "type": "node",
  "id": 9080852687,
  "lat": 42.0664938,
  "lon": 21.0276019,
  "tags": {
    "amenity": "place_of_worship",
    "name": "Св. Кирил и Методиј",
    "name:en": "St. Cyril and St. Methodius",
    "religion": "christian"
  }
},
{
  "type": "node",
  "id": 9080920713,
  "lat": 42.0640097,
  "lon": 21.0288552,
  "tags": {
    "historic": "monument",
    "name": "Ѓоко Лазаревски",
    "name:en": "Gjoko Lazarevski"
  }
},
{
  "type": "node",
  "id": 9086030879,
  "lat": 42.0668701,
  "lon": 21.0285176,
  "tags": {
    "historic": "monument",
    "monument": "war_memorial",
    "name": "Загинати Лешочани во војните 1903-2001"
  }
},
{
  "type": "node",
  "id": 9120699958,
  "lat": 41.5618318,
  "lon": 21.1908022,
  "tags": {
    "amenity": "place_of_worship",
    "name": "Црква Св. Петка",
    "religion": "christian"
  }
},
{
  "type": "node",
  "id": 9161033018,
  "lat": 40.9643836,
  "lon": 20.7886738,
  "tags": {
    "amenity": "place_of_worship",
    "name:de": "Froedhof"
  }
},
{
  "type": "node",
  "id": 9200215821,
  "lat": 41.1141534,
  "lon": 20.7982760,
  "tags": {
    "historic": "memorial",
    "name": "Нада Филева",
    "name:en": "Nada Fileva"
  }
},
{
  "type": "node",
  "id": 9200215923,
  "lat": 41.1873221,
  "lon": 20.7499842,
  "tags": {
    "amenity": "place_of_worship",
    "name:de": "Friedhof"
  }
},
{
  "type": "node",
  "id": 9200215930,
  "lat": 40.9189088,
  "lon": 20.7712682,
  "tags": {
    "amenity": "place_of_worship",
    "name:de": "Kirche und Friedhof"
  }
},
{
  "type": "node",
  "id": 9200216072,
  "lat": 41.9986089,
  "lon": 21.4377285,
  "tags": {
    "historic": "monument",
    "name:en": "Soldier with gun on horse"
  }
},
{
  "type": "node",
  "id": 9200216075,
  "lat": 41.9834113,
  "lon": 21.3086638,
  "tags": {
    "amenity": "place_of_worship",
    "name:de": "Friedhof"
  }
},
{
  "type": "node",
  "id": 9200216569,
  "lat": 42.0043082,
  "lon": 21.4185013,
  "tags": {
    "historic": "memorial",
    "name": "Dane kraptzew"
  }
},
{
  "type": "node",
  "id": 9219801017,
  "lat": 41.1133728,
  "lon": 20.7973177,
  "tags": {
    "addr:street": "Климентов Универзитет",
    "amenity": "place_of_worship",
    "name": "Света Борогодица Челница",
    "name:en": "Holy Mother of God Chelnichka",
    "religion": "christian"
  }
},
{
  "type": "node",
  "id": 9241877277,
  "lat": 41.4354106,
  "lon": 22.6364291,
  "tags": {
    "name": "Museum Strumica",
    "tourism": "museum"
  }
},
{
  "type": "node",
  "id": 9241913498,
  "lat": 42.2089207,
  "lon": 22.3621503,
  "tags": {
    "amenity": "place_of_worship",
    "name": "Saint Joachim Osogovski",
    "name:mk": "Свети Јоаким Осоговски",
    "religion": "christian",
    "tourism": "attraction"
  }
},
{
  "type": "node",
  "id": 9241915460,
  "lat": 41.1488082,
  "lon": 22.5220207,
  "tags": {
    "name": "Vardarski Rid",
    "tourism": "museum"
  }
},
{
  "type": "node",
  "id": 9269907745,
  "lat": 41.9918182,
  "lon": 21.4296159,
  "tags": {
    "historic": "memorial",
    "memorial": "plaque",
    "name": "Атентат на Киро Глигоров",
    "name:en": "Atentat of Kiro Gligorov"
  }
},
{
  "type": "node",
  "id": 9656080544,
  "lat": 41.1571670,
  "lon": 21.3566709,
  "tags": {
    "historic": "memorial",
    "memorial": "plaque"
  }
},
{
  "type": "node",
  "id": 9656080591,
  "lat": 41.2487962,
  "lon": 22.6492463,
  "tags": {
    "historic": "memorial",
    "memorial": "plaque"
  }
},
{
  "type": "node",
  "id": 9661472617,
  "lat": 41.9135927,
  "lon": 22.4105061,
  "tags": {
    "historic": "monument",
    "name": "Браќата Просветители Св. Кирил и Методиј"
  }
},
{
  "type": "node",
  "id": 9661483288,
  "lat": 41.9143473,
  "lon": 22.4106120,
  "tags": {
    "historic": "monument",
    "name": "Љупчо Сантов"
  }
},
{
  "type": "node",
  "id": 9686944119,
  "lat": 41.5170131,
  "lon": 21.3517782,
  "tags": {
    "historic": "monument"
  }
},
{
  "type": "node",
  "id": 9689907635,
  "lat": 41.2646939,
  "lon": 21.4678555,
  "tags": {
    "historic": "monument"
  }
},
{
  "type": "node",
  "id": 9789628417,
  "lat": 41.9187645,
  "lon": 22.0642612,
  "tags": {
    "amenity": "place_of_worship",
    "name:en": "Church",
    "name:fr": "Eglise"
  }
},
{
  "type": "node",
  "id": 9815296517,
  "lat": 41.4433744,
  "lon": 20.5319239,
  "tags": {
    "amenity": "place_of_worship",
    "name:fr": "mosquée"
  }
},
{
  "type": "node",
  "id": 9825979344,
  "lat": 41.0306613,
  "lon": 21.3343796,
  "tags": {
    "historic": "monument"
  }
},
{
  "type": "node",
  "id": 9870278517,
  "lat": 41.1849403,
  "lon": 20.8769171,
  "tags": {
    "amenity": "place_of_worship",
    "name:en": "St. Kozmo and Damjan"
  }
},
{
  "type": "node",
  "id": 9874636372,
  "lat": 41.2081445,
  "lon": 20.9655147,
  "tags": {
    "amenity": "place_of_worship",
    "internet_access": "no",
    "religion": "christian",
    "wheelchair": "no"
  }
},
{
  "type": "node",
  "id": 9897124627,
  "lat": 41.1135425,
  "lon": 20.7967334,
  "tags": {
    "amenity": "place_of_worship",
    "name": "Мали Свети Врачи - Св. Кузман и Дамјан",
    "religion": "christian"
  }
},
{
  "type": "node",
  "id": 9903663737,
  "lat": 41.1334664,
  "lon": 20.8473582,
  "tags": {
    "amenity": "place_of_worship",
    "name": "Manastir Svetog Ilije",
    "religion": "christian"
  }
},
{
  "type": "node",
  "id": 9907558752,
  "lat": 40.9452955,
  "lon": 20.9015885,
  "tags": {
    "amenity": "place_of_worship",
    "denomination": "orthodox",
    "religion": "christian"
  }
},
{
  "type": "node",
  "id": 9907558764,
  "lat": 41.0425682,
  "lon": 21.0068261,
  "tags": {
    "historic": "memorial",
    "memorial": "bust"
  }
},
{
  "type": "node",
  "id": 9907558791,
  "lat": 41.0650349,
  "lon": 21.1451250,
  "tags": {
    "amenity": "place_of_worship",
    "denomination": "orthodox",
    "religion": "christian"
  }
},
{
  "type": "node",
  "id": 9907558792,
  "lat": 41.0659134,
  "lon": 21.2084274,
  "tags": {
    "amenity": "place_of_worship",
    "building": "chapel",
    "denomination": "orthodox",
    "religion": "christian"
  }
},
{
  "type": "node",
  "id": 9909480547,
  "lat": 41.0656254,
  "lon": 21.1482793,
  "tags": {
    "historic": "memorial",
    "memorial": "war_memorial"
  }
},
{
  "type": "node",
  "id": 9909733630,
  "lat": 40.9395818,
  "lon": 20.9117668,
  "tags": {
    "historic": "memorial",
    "memorial": "war_memorial"
  }
},
{
  "type": "node",
  "id": 9915881944,
  "lat": 40.9785566,
  "lon": 21.3594107,
  "tags": {
    "historic": "memorial",
    "memorial": "war_memorial"
  }
},
{
  "type": "node",
  "id": 9927093810,
  "lat": 41.8781835,
  "lon": 20.8876605,
  "tags": {
    "historic": "monument",
    "name": "Naim Frasheri"
  }
},
{
  "type": "node",
  "id": 9927105104,
  "lat": 41.8783510,
  "lon": 20.8835051,
  "tags": {
    "access": "yes",
    "historic": "monument",
    "name": "Naser Ademi"
  }
},
{
  "type": "node",
  "id": 9927105105,
  "lat": 41.8782156,
  "lon": 20.8834670,
  "tags": {
    "access": "yes",
    "historic": "monument",
    "name": "Deshmoret e Ushtrise Clirimtare Kombetare"
  }
},
{
  "type": "node",
  "id": 9945894317,
  "lat": 41.1123275,
  "lon": 20.7970433,
  "tags": {
    "name": "House of Lambeski",
    "tourism": "museum"
  }
},
{
  "type": "node",
  "id": 10006874002,
  "lat": 42.0001506,
  "lon": 22.1778987,
  "tags": {
    "historic": "memorial",
    "memorial": "bust",
    "name": "Јаким Д Стојковски"
  }
},
{
  "type": "node",
  "id": 10016706957,
  "lat": 41.2332968,
  "lon": 20.6053271,
  "tags": {
    "amenity": "place_of_worship",
    "religion": "muslim"
  }
},
{
  "type": "node",
  "id": 10049878740,
  "lat": 42.2235516,
  "lon": 21.7003670,
  "tags": {
    "addr:city": "Табановце",
    "amenity": "place_of_worship",
    "name": "Muslim mosque",
    "religion": "muslim"
  }
},
{
  "type": "node",
  "id": 10077532395,
  "lat": 41.5204992,
  "lon": 20.9513010,
  "tags": {
    "addr:city": "Kicevo",
    "addr:postcode": "6250",
    "addr:street": "Ужичка Република",
    "amenity": "place_of_worship",
    "name": "4 Halifët",
    "religion": "muslim"
  }
},
{
  "type": "node",
  "id": 10077532396,
  "lat": 41.5186764,
  "lon": 20.9627469,
  "tags": {
    "amenity": "place_of_worship",
    "name": "Bela Kula",
    "religion": "muslim"
  }
},
{
  "type": "node",
  "id": 10077534873,
  "lat": 41.5142629,
  "lon": 20.9600539,
  "tags": {
    "amenity": "place_of_worship",
    "denomination": "shia",
    "name": "Teqja  \"ADËR BABA\"",
    "religion": "muslim"
  }
},
{
  "type": "node",
  "id": 10077537272,
  "lat": 41.5160132,
  "lon": 20.9641748,
  "tags": {
    "amenity": "place_of_worship",
    "name": "Muftinia e Kërçovës",
    "religion": "muslim"
  }
},
{
  "type": "node",
  "id": 10106511447,
  "lat": 41.4290667,
  "lon": 22.6409802,
  "tags": {
    "amenity": "place_of_worship",
    "religion": "muslim"
  }
},
{
  "type": "node",
  "id": 10172834294,
  "lat": 41.8793162,
  "lon": 22.5061828,
  "tags": {
    "amenity": "place_of_worship",
    "religion": "muslim"
  }
},
{
  "type": "node",
  "id": 10174642572,
  "lat": 41.8846784,
  "lon": 22.5128835,
  "tags": {
    "amenity": "place_of_worship",
    "denomination": "orthodox",
    "name": "Свети Апостол и евангелист Лука",
    "religion": "christian"
  }
},
{
  "type": "node",
  "id": 10188836793,
  "lat": 41.6936732,
  "lon": 20.7236770,
  "tags": {
    "amenity": "place_of_worship",
    "denomination": "orthodox",
    "name": "Црква Св. Никол",
    "name:pl": "Cerkiew św. Mik",
    "religion": "christian"
  }
},
{
  "type": "node",
  "id": 10203806066,
  "lat": 41.1225742,
  "lon": 20.7846630,
  "tags": {
    "amenity": "place_of_worship",
    "building": "mosque",
    "religion": "muslim"
  }
},
{
  "type": "node",
  "id": 10203858685,
  "lat": 41.1757351,
  "lon": 20.6757298,
  "tags": {
    "amenity": "place_of_worship",
    "denomination": "evangelical",
    "name": "Евангелска црква Струга",
    "religion": "christian"
  }
},
{
  "type": "node",
  "id": 10204019526,
  "lat": 41.1757856,
  "lon": 20.6777867,
  "tags": {
    "historic": "memorial",
    "memorial": "war_memorial"
  }
},
{
  "type": "node",
  "id": 10204019571,
  "lat": 41.1757975,
  "lon": 20.6778798,
  "tags": {
    "historic": "memorial",
    "memorial": "bust",
    "name": "Нико Нестор-Дживджан"
  }
},
{
  "type": "node",
  "id": 10204019572,
  "lat": 41.1756353,
  "lon": 20.6791018,
  "tags": {
    "amenity": "dentist",
    "healthcare": "dentist",
    "historic": "memorial",
    "int_name": "Drini dent",
    "name": "Дрини дент",
    "opening_hours": "Mo-Fr 10:00-17:00; Sa 09:00-14;00",
    "phone": "+389 46 781 143"
  }
},
{
  "type": "node",
  "id": 10224019277,
  "lat": 41.3644320,
  "lon": 21.5709712,
  "tags": {
    "access": "yes",
    "historic": "monument"
  }
},
{
  "type": "node",
  "id": 10683728205,
  "lat": 42.1415493,
  "lon": 21.6950580,
  "tags": {
    "amenity": "place_of_worship",
    "name:en": "Sveta Petka"
  }
},
{
  "type": "node",
  "id": 10834112603,
  "lat": 41.4708932,
  "lon": 20.8897693,
  "tags": {
    "amenity": "place_of_worship",
    "denomination": "orthodox",
    "int_name": "St. Athanasius the Great",
    "name": "Св. Атанасиј Велики",
    "name:mk": "Св. Атанасиј Велики",
    "religion": "christian"
  }
},
{
  "type": "node",
  "id": 10903157207,
  "lat": 41.5880829,
  "lon": 20.6272412,
  "tags": {
    "amenity": "place_of_worship",
    "religion": "muslim",
    "survey:date": "2023-05-16"
  }
},
{
  "type": "node",
  "id": 10903157209,
  "lat": 41.5891815,
  "lon": 20.6256923,
  "tags": {
    "historic": "memorial",
    "memorial": "plaque",
    "survey:date": "2023-05-16"
  }
},
{
  "type": "node",
  "id": 10906089678,
  "lat": 41.5300004,
  "lon": 20.5276097,
  "tags": {
    "amenity": "place_of_worship",
    "denomination": "orthodox",
    "name": "Успение на Пресвета Богородица",
    "religion": "christian"
  }
},
{
  "type": "node",
  "id": 10908106509,
  "lat": 41.1091020,
  "lon": 20.6341416,
  "tags": {
    "amenity": "place_of_worship",
    "religion": "christian",
    "survey:date": "2023-05-18"
  }
},
{
  "type": "node",
  "id": 10908337806,
  "lat": 41.1057905,
  "lon": 20.6340431,
  "tags": {
    "historic": "memorial",
    "survey:date": "2023-05-18"
  }
},
{
  "type": "node",
  "id": 10913797906,
  "lat": 41.9964125,
  "lon": 21.4328484,
  "tags": {
    "historic": "memorial",
    "name": "Споменик „Солунски атентатори и Гемиџии“",
    "name:de": "Denkmal „Assassinen und Schiffer von Thessaloniki“",
    "source": "survey"
  }
},
{
  "type": "node",
  "id": 10926875205,
  "lat": 41.0259399,
  "lon": 21.3144015,
  "tags": {
    "amenity": "place_of_worship",
    "name:en": "Црква Св.Лидија"
  }
},
{
  "type": "node",
  "id": 10932198705,
  "lat": 41.0748026,
  "lon": 21.3299172,
  "tags": {
    "name:en": "Auto and etno museum \"Filip\"",
    "tourism": "museum",
    "website": "http://www.muzejkrklino.mk/en/"
  }
},
{
  "type": "node",
  "id": 10951320762,
  "lat": 41.8848347,
  "lon": 21.2783290,
  "tags": {
    "amenity": "place_of_worship",
    "denomination": "orthodox",
    "image": "https://encrypted-tbn0.gstatic.com/images?q=tbn:ANd9GcTi5omrKp55t3b8E12vFxPMtDd8f_zaBCGarv4LT6rrchrbfQEundxs6KdeyIfKnj1V3tE&usqp=CAU",
    "name": "Sveti Nikola",
    "religion": "christian"
  }
},
{
  "type": "node",
  "id": 10951472385,
  "lat": 41.8825844,
  "lon": 21.1272696,
  "tags": {
    "addr:city": "Седларево",
    "addr:postcode": "1000",
    "amenity": "place_of_worship",
    "name": "Sedlarevo Mosque",
    "religion": "muslim"
  }
},
{
  "type": "node",
  "id": 10951493047,
  "lat": 41.8435051,
  "lon": 21.1052173,
  "tags": {
    "amenity": "place_of_worship",
    "name": "Gurgurnica Mosque",
    "religion": "muslim"
  }
},
{
  "type": "node",
  "id": 10979418774,
  "lat": 41.1111362,
  "lon": 20.7886924,
  "tags": {
    "amenity": "place_of_worship",
    "denomination": "orthodox",
    "name": "St. John Kaneo",
    "religion": "christian"
  }
},
{
  "type": "node",
  "id": 10994717547,
  "lat": 41.1155093,
  "lon": 20.8005313,
  "tags": {
    "amenity": "place_of_worship",
    "name": "Ali Pasha Mosque",
    "religion": "muslim"
  }
},
{
  "type": "node",
  "id": 11038699139,
  "lat": 42.1493837,
  "lon": 21.1306996,
  "tags": {
    "amenity": "place_of_worship",
    "name": "Sveti Spiridon"
  }
},
{
  "type": "node",
  "id": 11107939919,
  "lat": 41.8117124,
  "lon": 21.1617392,
  "tags": {
    "archaeological_site": "settlement",
    "historic": "archaeological_site",
    "historic:civilization": "prehistoric",
    "name": "Голема Пеш",
    "name:en": "Golema Pesht",
    "wikidata": "Q20565511",
    "wikipedia": "mk:Голема Пеш"
  }
},
{
  "type": "node",
  "id": 11112639804,
  "lat": 41.4666667,
  "lon": 21.1244347,
  "tags": {
    "amenity": "place_of_worship",
    "name": "Nur",
    "religion": "muslim"
  }
},
{
  "type": "node",
  "id": 11112647105,
  "lat": 41.4811087,
  "lon": 21.1181315,
  "tags": {
    "amenity": "place_of_worship",
    "religion": "muslim"
  }
},
{
  "type": "node",
  "id": 11112647126,
  "lat": 41.4649040,
  "lon": 21.1196024,
  "tags": {
    "amenity": "place_of_worship",
    "religion": "muslim"
  }
},
{
  "type": "node",
  "id": 11112647127,
  "lat": 41.4790694,
  "lon": 21.0931450,
  "tags": {
    "amenity": "place_of_worship",
    "religion": "muslim"
  }
},
{
  "type": "node",
  "id": 11158647774,
  "lat": 41.5357682,
  "lon": 21.0088812,
  "tags": {
    "amenity": "place_of_worship",
    "religion": "muslim"
  }
},
{
  "type": "node",
  "id": 11158647775,
  "lat": 41.5433656,
  "lon": 21.0066561,
  "tags": {
    "amenity": "place_of_worship",
    "religion": "muslim"
  }
},
{
  "type": "node",
  "id": 11158647785,
  "lat": 41.5303721,
  "lon": 20.9860814,
  "tags": {
    "amenity": "place_of_worship",
    "religion": "muslim"
  }
},
{
  "type": "node",
  "id": 11158647786,
  "lat": 41.5406984,
  "lon": 20.9583903,
  "tags": {
    "landuse": "cemetery"
  }
},
{
  "type": "node",
  "id": 11158647787,
  "lat": 41.5846842,
  "lon": 21.0230765,
  "tags": {
    "landuse": "cemetery"
  }
},
{
  "type": "node",
  "id": 11158647788,
  "lat": 41.5831503,
  "lon": 21.0257723,
  "tags": {
    "landuse": "cemetery"
  }
},
{
  "type": "node",
  "id": 11158732837,
  "lat": 41.6184737,
  "lon": 21.0445696,
  "tags": {
    "amenity": "place_of_worship",
    "religion": "muslim"
  }
},
{
  "type": "node",
  "id": 11158732838,
  "lat": 41.6484097,
  "lon": 21.0262708,
  "tags": {
    "amenity": "place_of_worship",
    "religion": "muslim"
  }
},
{
  "type": "node",
  "id": 11158732839,
  "lat": 41.6551677,
  "lon": 21.0210097,
  "tags": {
    "amenity": "place_of_worship",
    "religion": "muslim"
  }
},
{
  "type": "node",
  "id": 11158732841,
  "lat": 41.5876093,
  "lon": 21.0090372,
  "tags": {
    "amenity": "place_of_worship",
    "religion": "muslim"
  }
},
{
  "type": "node",
  "id": 11158732842,
  "lat": 41.6150365,
  "lon": 21.0076289,
  "tags": {
    "amenity": "place_of_worship",
    "religion": "muslim"
  }
},
{
  "type": "node",
  "id": 11158732843,
  "lat": 41.6139137,
  "lon": 21.0072464,
  "tags": {
    "amenity": "place_of_worship",
    "religion": "muslim"
  }
},
{
  "type": "node",
  "id": 11158732844,
  "lat": 41.6145404,
  "lon": 21.0095974,
  "tags": {
    "amenity": "place_of_worship",
    "religion": "christian"
  }
},
{
  "type": "node",
  "id": 11158761745,
  "lat": 41.5761344,
  "lon": 20.9274062,
  "tags": {
    "amenity": "place_of_worship",
    "name": "Xhamia Alikurtaj",
    "religion": "muslim"
  }
},
{
  "type": "node",
  "id": 11158761746,
  "lat": 41.5735519,
  "lon": 20.9356474,
  "tags": {
    "amenity": "place_of_worship",
    "religion": "muslim"
  }
},
{
  "type": "node",
  "id": 11158761768,
  "lat": 41.6060911,
  "lon": 20.9056919,
  "tags": {
    "amenity": "place_of_worship",
    "religion": "muslim"
  }
},
{
  "type": "node",
  "id": 11158762284,
  "lat": 41.5502866,
  "lon": 20.9755698,
  "tags": {
    "landuse": "cemetery"
  }
},
{
  "type": "node",
  "id": 11158893505,
  "lat": 41.5875575,
  "lon": 21.0319272,
  "tags": {
    "historic": "memorial",
    "memorial": "plaque"
  }
},
{
  "type": "node",
  "id": 11158893506,
  "lat": 41.5495562,
  "lon": 21.0214707,
  "tags": {
    "historic": "memorial",
    "memorial": "plaque"
  }
},
{
  "type": "node",
  "id": 11158893547,
  "lat": 41.6173834,
  "lon": 21.0453863,
  "tags": {
    "historic": "memorial",
    "memorial": "plaque"
  }
},
{
  "type": "node",
  "id": 11158893548,
  "lat": 41.5423453,
  "lon": 21.0000492,
  "tags": {
    "historic": "memorial",
    "memorial": "plaque"
  }
},
{
  "type": "node",
  "id": 11159838531,
  "lat": 41.4616499,
  "lon": 21.0528847,
  "tags": {
    "amenity": "place_of_worship",
    "religion": "muslim"
  }
},
{
  "type": "node",
  "id": 11159838532,
  "lat": 41.4691041,
  "lon": 21.1102162,
  "tags": {
    "amenity": "place_of_worship",
    "religion": "muslim"
  }
},
{
  "type": "node",
  "id": 11159838533,
  "lat": 41.5860051,
  "lon": 21.0517830,
  "tags": {
    "amenity": "place_of_worship",
    "religion": "muslim"
  }
},
{
  "type": "node",
  "id": 11168301637,
  "lat": 41.5946001,
  "lon": 20.9400685,
  "tags": {
    "amenity": "place_of_worship",
    "religion": "muslim"
  }
},
{
  "type": "node",
  "id": 11168301650,
  "lat": 41.6077435,
  "lon": 20.9383797,
  "tags": {
    "amenity": "place_of_worship",
    "religion": "muslim"
  }
},
{
  "type": "node",
  "id": 11168301683,
  "lat": 41.6174162,
  "lon": 20.9397643,
  "tags": {
    "amenity": "place_of_worship",
    "religion": "muslim"
  }
},
{
  "type": "node",
  "id": 11169756569,
  "lat": 41.6260738,
  "lon": 21.0072150,
  "tags": {
    "amenity": "place_of_worship",
    "religion": "muslim"
  }
},
{
  "type": "node",
  "id": 11170724153,
  "lat": 41.5940092,
  "lon": 21.0234693,
  "tags": {
    "amenity": "place_of_worship",
    "religion": "muslim"
  }
},
{
  "type": "node",
  "id": 11171381533,
  "lat": 41.5127983,
  "lon": 20.9638123,
  "tags": {
    "tourism": "museum"
  }
},
{
  "type": "node",
  "id": 11174477927,
  "lat": 41.5951996,
  "lon": 20.9680707,
  "tags": {
    "amenity": "place_of_worship",
    "religion": "muslim"
  }
},
{
  "type": "node",
  "id": 11174527434,
  "lat": 41.5587261,
  "lon": 20.9632332,
  "tags": {
    "amenity": "place_of_worship",
    "religion": "muslim"
  }
},
{
  "type": "node",
  "id": 11174641460,
  "lat": 41.5722986,
  "lon": 20.9625067,
  "tags": {
    "amenity": "place_of_worship",
    "religion": "muslim"
  }
},
{
  "type": "node",
  "id": 11177495437,
  "lat": 42.0125107,
  "lon": 22.5987112,
  "tags": {
    "amenity": "place_of_worship",
    "name": "Св. Спас",
    "religion": "christian"
  }
},
{
  "type": "node",
  "id": 11199658508,
  "lat": 41.6062889,
  "lon": 20.9660511,
  "tags": {
    "amenity": "place_of_worship",
    "religion": "muslim"
  }
},
{
  "type": "node",
  "id": 11278490101,
  "lat": 40.9271050,
  "lon": 21.4293861,
  "tags": {
    "amenity": "place_of_worship",
    "religion": "muslim"
  }
},
{
  "type": "node",
  "id": 11335541069,
  "lat": 41.3070686,
  "lon": 21.1873038,
  "tags": {
    "amenity": "place_of_worship",
    "name": "Св. Архангел Михаил",
    "name:en": "St. Archangel Mihail"
  }
}

  ]
}
